<?xml version="1.0" encoding="UTF-8"?>
<kml xmlns="http://www.opengis.net/kml/2.2" xmlns:gx="http://www.google.com/kml/ext/2.2" xmlns:kml="http://www.opengis.net/kml/2.2" xmlns:atom="http://www.w3.org/2005/Atom">
<Document>
	<name>Espaseta Backyard 2025.kml</name>
	<StyleMap id="lineStyle0000">
		<Pair>
			<key>normal</key>
			<styleUrl>#lineStyle30</styleUrl>
		</Pair>
		<Pair>
			<key>highlight</key>
			<styleUrl>#lineStyle0010</styleUrl>
		</Pair>
	</StyleMap>
	<Style id="lineStyle0010">
		<LineStyle>
			<color>ff00aa55</color>
			<width>6</width>
		</LineStyle>
	</Style>
	<Style id="lineStyle30">
		<LineStyle>
			<color>ff00aa55</color>
			<width>6</width>
		</LineStyle>
	</Style>
	<Placemark>
		<name>Espaseta Backyard 2025</name>
		<open>1</open>
		<styleUrl>#lineStyle0000</styleUrl>
		<LineString>
			<tessellate>1</tessellate>
			<coordinates>
				1.005469666390668,41.62455276486632,0 1.005796467717288,41.62492282440858,0 1.005977884840552,41.62508905710232,0 1.00603328874066,41.62511750466897,0 1.006297866877799,41.62493093577218,0 1.006761512457688,41.62440735343679,0 1.007151132638187,41.62393263191841,0 1.007373727163938,41.62371911297016,0 1.007967005068402,41.62335047029451,0 1.008282815536279,41.62323135746849,0 1.008697558343556,41.62309719998946,0 1.009392571133336,41.62298967619026,0 1.009872918865726,41.62288685403033,0 1.009966980661279,41.62279829648141,0 1.009932288474615,41.62273400591247,0 1.009380170040164,41.62221188424758,0 1.009251920838166,41.62196585523206,0 1.009319639861694,41.62189600305279,0 1.009235290814687,41.62177712900004,0 1.009074626851154,41.62147384834329,0 1.00913156729971,41.62130836814681,0 1.009242602049265,41.62084013983191,0 1.009383753857986,41.62076851646956,0 1.00974585672156,41.62055753392706,0 1.009928442967842,41.62033173819442,0 1.010027927122317,41.62015028546011,0 1.009997626306121,41.61995971861359,0 1.00997555447238,41.61979812344011,0 1.009939908131741,41.6197150386038,0 1.009848339575443,41.61966636276782,0 1.009720683508106,41.61958354497818,0 1.009608677790625,41.61950993764241,0 1.009446769459643,41.61946544629134,0 1.00936699553102,41.61944528418013,0 1.009141019798754,41.61897723297221,0 1.008946015089454,41.61858090466735,0 1.008776879481934,41.61831176602569,0 1.008435372196763,41.61786818722117,0 1.008355051504466,41.61768701647224,0 1.007825538274503,41.61805305586767,0 1.007451478270471,41.61823079466892,0 1.007232444572872,41.61834423851425,0 1.007012709733748,41.61835275969329,0 1.00656041297664,41.61758375456737,0 1.006490921155083,41.61739544590108,0 1.006305936097791,41.61706616886724,0 1.006421481347139,41.61688310383462,0 1.006704035436565,41.61685584866694,0 1.006920457255671,41.61674494591299,0 1.007184153744356,41.61658494575452,0 1.007388142465311,41.61640446128403,0 1.007578689372264,41.61631227178405,0 1.007815377618206,41.61614327242462,0 1.008076945916008,41.61601536843791,0 1.008239173960186,41.61590672554973,0 1.00835500289469,41.61583347183108,0 1.008648250689377,41.61566669598534,0 1.008913995432028,41.61557568129421,0 1.009172328021368,41.61549240810078,0 1.009618179301863,41.61536027085965,0 1.010071530169649,41.61520811980788,0 1.010542226029258,41.61498687707917,0 1.010888317910632,41.61471197771267,0 1.01125588646011,41.61444994693571,0 1.011611312188379,41.61426240321751,0 1.011869223692572,41.61409518252214,0 1.012014824192569,41.61403128798175,0 1.012138915355614,41.61393302304366,0 1.012363198656545,41.6138557159952,0 1.012518940175187,41.61380766292812,0 1.012625538372176,41.61379269565894,0 1.012753136970683,41.61374565817881,0 1.013077831549927,41.61375969774835,0 1.013529728936517,41.6139238961865,0 1.014093901700903,41.61429088597637,0 1.014323403628945,41.61439289066344,0 1.014523348901823,41.6141775949519,0 1.014935319912649,41.61365926701202,0 1.015158314188054,41.61332795819897,0 1.015200548769506,41.61313463801004,0 1.015149038203373,41.61291227537075,0 1.015009933087987,41.61253687301114,0 1.014916616193655,41.61226812524389,0 1.015022179375651,41.61203805511363,0 1.015098717695133,41.61184249765689,0 1.01508596812889,41.61160929428044,0 1.015159161662564,41.61110183081436,0 1.01509182948613,41.61068702120994,0 1.015080111780204,41.61023619128975,0 1.015172490324898,41.60954407182595,0 1.015278652004505,41.60927578779079,0 1.015397456353044,41.60922992194175,0 1.016114762816311,41.60919221536139,0 1.016594808575455,41.60910685451505,0 1.016882376912338,41.6089438604362,0 1.017582417126295,41.60884031030265,0 1.018024170361846,41.60882855028751,0 1.018431800221693,41.60890633807076,0 1.019033047165505,41.6088198506456,0 1.019525026685888,41.60873218161994,0 1.020050002348769,41.60866479639361,0 1.020434627749698,41.60863797779504,0 1.020850901504224,41.6086898543069,0 1.021226045746715,41.6087563321911,0 1.021848694207865,41.60873103185442,0 1.022414438124339,41.60869525407713,0 1.023191527030543,41.60871216849597,0 1.023820652093608,41.60860588514215,0 1.024419808712547,41.60857990139391,0 1.025127123730343,41.60857997078391,0 1.025668397401127,41.60855075365141,0 1.025917205006286,41.60871964332447,0 1.02525632434517,41.6089987265452,0 1.02468877049833,41.60929717984232,0 1.023816596993492,41.60969162701331,0 1.02359284469884,41.60999255779162,0 1.023108833834232,41.61034518143619,0 1.023088444353089,41.61035578303566,0 1.022921988462717,41.61048823775626,0 1.022823646462274,41.6106724017508,0 1.022591987147703,41.61087001692494,0 1.022222606639063,41.61116021106043,0 1.021898243473616,41.61137153511501,0 1.021682319810686,41.61154931441563,0 1.021173749760294,41.61180340021206,0 1.020612148499538,41.61203160119014,0 1.020204264940909,41.61211231457452,0 1.019831706334025,41.61210639001432,0 1.019416669399125,41.61192295482935,0 1.01915457095008,41.61179499101956,0 1.018888436963032,41.61183696556912,0 1.01838842149786,41.61202264090506,0 1.018125472477263,41.61213266369401,0 1.018026934135956,41.61226989892185,0 1.01804592268443,41.61254121549633,0 1.018041386871644,41.61287860158107,0 1.017950195556365,41.61319340719031,0 1.017546480494285,41.61364050309356,0 1.017083383274573,41.6140769353506,0 1.016658159784514,41.61444678342913,0 1.016359935775026,41.6147791356674,0 1.016025213282523,41.61495431158897,0 1.015771178786924,41.61504792989958,0 1.015539147557534,41.61507329088239,0 1.015254280981646,41.61490084479813,0 1.014826720434159,41.61469843977243,0 1.014513774814001,41.61452565541492,0 1.014328654395966,41.61445873383152,0 1.014174725753954,41.61461516821704,0 1.013752348174621,41.61519741867924,0 1.013416945140415,41.61553454873781,0 1.01308093664179,41.61589865734609,0 1.012867291861244,41.61622981575832,0 1.012683069541764,41.61653289425674,0 1.01240076800218,41.61679943976395,0 1.012088403025255,41.61730967913557,0 1.011823774931297,41.61763616148368,0 1.011890583195678,41.61780716754939,0 1.01211318795948,41.61798540117856,0 1.012224937946464,41.61820098600051,0 1.012168361262626,41.61846705382507,0 1.012067515061077,41.61872341846391,0 1.011987657144378,41.6189178230446,0 1.011821589350801,41.61918452726397,0 1.011807518114625,41.61930339536292,0 1.011801501144483,41.6193536414472,0 1.011895317836398,41.61941935102244,0 1.011970063603334,41.61959335049478,0 1.011948252616777,41.61977003749912,0 1.011924012224263,41.61988865366113,0 1.011774698096701,41.61996264793117,0 1.011225714621102,41.62021484441369,0 1.010645932320233,41.62055478398676,0 1.010239897313276,41.62080848824819,0 1.009811874876103,41.62104485706946,0 1.009428256008211,41.62126052805347,0 1.00921422524374,41.62140650330753,0 1.009121601836276,41.62152522557587,0 1.0092201929361,41.62170316830954,0 1.009318305865681,41.62180322579187,0 1.00918924988272,41.62194142979976,0 1.009564836767913,41.62233996857649,0 1.00989308047355,41.62265979052776,0 1.009931776874333,41.6228587693911,0 1.009617696777563,41.62295741514708,0 1.008990835101835,41.62305513832426,0 1.008486282061167,41.62317812080762,0 1.007737949002447,41.62344832874377,0 1.007532020403934,41.62358464129716,0 1.007028138183825,41.62413846258214,0 1.006640846140749,41.62456600038202,0 1.006448236579769,41.62476821470172,0 1.006172422444638,41.62504657143036,0 1.006036585989294,41.62518185495365,0 1.005469666390668,41.62455276486632,0 
			</coordinates>
		</LineString>
		<atom:link rel="app" href="https://www.google.com/earth/about/versions/#earth-pro" title="Google Earth Pro 7.3.7.1155"></atom:link>
	</Placemark>
</Document>
</kml>
