<?xml version="1.0" encoding="UTF-8"?>
<kml xmlns="http://www.opengis.net/kml/2.2" xmlns:gx="http://www.google.com/kml/ext/2.2" xmlns:kml="http://www.opengis.net/kml/2.2" xmlns:atom="http://www.w3.org/2005/Atom">
<Document>
	<name>Espaseta Backyard 2025.kml</name>
	<StyleMap id="lineStyle000">
		<Pair>
			<key>normal</key>
			<styleUrl>#lineStyle3</styleUrl>
		</Pair>
		<Pair>
			<key>highlight</key>
			<styleUrl>#lineStyle001</styleUrl>
		</Pair>
	</StyleMap>
	<Style id="lineStyle001">
		<LineStyle>
			<color>fff3ffc2</color>
			<width>6</width>
		</LineStyle>
	</Style>
	<Style id="lineStyle3">
		<LineStyle>
			<color>fff3ffc2</color>
			<width>6</width>
		</LineStyle>
	</Style>
	<Placemark>
		<name>Espaseta Backyard 2025</name>
		<styleUrl>#lineStyle000</styleUrl>
		<LineString>
			<tessellate>1</tessellate>
			<coordinates>
				1.005469666390668,41.62455276486632,0 1.005796467717288,41.62492282440858,0 1.005977884840552,41.62508905710232,0 1.00603328874066,41.62511750466897,0 1.006297866877799,41.62493093577218,0 1.006761512457688,41.62440735343679,0 1.007151132638187,41.62393263191841,0 1.007373727163938,41.62371911297016,0 1.007967005068402,41.62335047029451,0 1.008282815536279,41.62323135746849,0 1.008697558343556,41.62309719998946,0 1.009392571133336,41.62298967619026,0 1.009872918865726,41.62288685403033,0 1.009966980661279,41.62279829648141,0 1.009932288474615,41.62273400591247,0 1.009380170040164,41.62221188424758,0 1.009251920838166,41.62196585523206,0 1.009319639861694,41.62189600305279,0 1.009235290814687,41.62177712900004,0 1.009074626851154,41.62147384834329,0 1.00913156729971,41.62130836814681,0 1.009242602049265,41.62084013983191,0 1.009383753857986,41.62076851646956,0 1.00974585672156,41.62055753392706,0 1.009928442967842,41.62033173819442,0 1.010027927122317,41.62015028546011,0 1.009997626306121,41.61995971861359,0 1.00997555447238,41.61979812344011,0 1.009939908131741,41.6197150386038,0 1.009849524354578,41.61971213846547,0 1.009743818205204,41.61981769550763,0 1.00957441775146,41.61983654147402,0 1.009443704756512,41.6198711218298,0 1.009362375426002,41.61984334556072,0 1.009355989318419,41.61971979057945,0 1.009383578359011,41.61958424853873,0 1.009339813249734,41.6194453477498,0 1.009330402059068,41.61923928717911,0 1.009216189732172,41.61903227426202,0 1.009118750120992,41.61882885731414,0 1.008966228203316,41.61859765496796,0 1.008751655439419,41.61825223892087,0 1.008585778447537,41.61796036197608,0 1.008527827209669,41.61778751353381,0 1.008502353075846,41.61767387920438,0 1.008513374851518,41.61758998171392,0 1.008484119381532,41.61754254986432,0 1.008410482308093,41.61750850811632,0 1.008287062327338,41.6174128777648,0 1.008121264458044,41.61717726896393,0 1.008024770301978,41.61695648165264,0 1.007923240945656,41.61677374517497,0 1.007763764066774,41.61650939012087,0 1.007698284361256,41.61639451832622,0 1.007749578921875,41.61631980605236,0 1.00790371445759,41.61619279116509,0 1.008063964539174,41.61610306717082,0 1.008247218719784,41.61603356789504,0 1.008342068620058,41.61598742023895,0 1.008340683313429,41.61587942891217,0 1.00835500289469,41.61583347183108,0 1.008648250689377,41.61566669598534,0 1.008913995432028,41.61557568129421,0 1.009172328021368,41.61549240810078,0 1.009618179301863,41.61536027085965,0 1.010071530169649,41.61520811980788,0 1.010542226029258,41.61498687707917,0 1.010888317910632,41.61471197771267,0 1.01125588646011,41.61444994693571,0 1.011611312188379,41.61426240321751,0 1.011869223692572,41.61409518252214,0 1.012014824192569,41.61403128798175,0 1.011940511362619,41.6139257427278,0 1.011758461646137,41.61388222831111,0 1.011842291972618,41.61382412121934,0 1.012085525039206,41.6138361503272,0 1.012690508412843,41.61373904477973,0 1.013074456851006,41.61370811804662,0 1.013529728936517,41.6139238961865,0 1.014093901700903,41.61429088597637,0 1.014323403628945,41.61439289066344,0 1.014523348901823,41.6141775949519,0 1.014935319912649,41.61365926701202,0 1.015158314188054,41.61332795819897,0 1.015200548769506,41.61313463801004,0 1.015149038203373,41.61291227537075,0 1.015009933087987,41.61253687301114,0 1.014916616193655,41.61226812524389,0 1.015022179375651,41.61203805511363,0 1.015098717695133,41.61184249765689,0 1.01508596812889,41.61160929428044,0 1.015159161662564,41.61110183081436,0 1.01509182948613,41.61068702120994,0 1.015080111780204,41.61023619128975,0 1.015172490324898,41.60954407182595,0 1.015278652004505,41.60927578779079,0 1.015397456353044,41.60922992194175,0 1.016114762816311,41.60919221536139,0 1.016594808575455,41.60910685451505,0 1.016882376912338,41.6089438604362,0 1.017582417126295,41.60884031030265,0 1.018024170361846,41.60882855028751,0 1.018431800221693,41.60890633807076,0 1.019033047165505,41.6088198506456,0 1.019525026685888,41.60873218161994,0 1.020050002348769,41.60866479639361,0 1.020434627749698,41.60863797779504,0 1.021085848160714,41.60873513833972,0 1.021746800823915,41.60874058262583,0 1.022424047052652,41.60870875560594,0 1.023173094549381,41.60869369011233,0 1.023720031223811,41.60864767824876,0 1.024447591680273,41.60860611997307,0 1.025207559742254,41.60856770151683,0 1.025631786829573,41.6085865796807,0 1.025840890221235,41.60861678141926,0 1.025935637945061,41.60871808508593,0 1.025928729289853,41.60882826186031,0 1.025718276253476,41.60894788026159,0 1.02535069992638,41.60917536842211,0 1.024900288231179,41.60938056994164,0 1.024442601758557,41.60956789472714,0 1.024179189445835,41.60967097451898,0 1.023840715363953,41.60988732326592,0 1.023562171993084,41.61014093281208,0 1.023117971486907,41.61047201139193,0 1.022823646462274,41.6106724017508,0 1.022591987147703,41.61087001692494,0 1.022222606639063,41.61116021106043,0 1.021898243473616,41.61137153511501,0 1.021682319810686,41.61154931441563,0 1.021173749760294,41.61180340021206,0 1.020612148499538,41.61203160119014,0 1.020204264940909,41.61211231457452,0 1.019831706334025,41.61210639001432,0 1.019416669399125,41.61192295482935,0 1.01915457095008,41.61179499101956,0 1.018888436963032,41.61183696556912,0 1.01838842149786,41.61202264090506,0 1.018125472477263,41.61213266369401,0 1.018026934135956,41.61226989892185,0 1.01804592268443,41.61254121549633,0 1.018041386871644,41.61287860158107,0 1.017950195556365,41.61319340719031,0 1.017546480494285,41.61364050309356,0 1.017083383274573,41.6140769353506,0 1.016658159784514,41.61444678342913,0 1.016359935775026,41.6147791356674,0 1.016025213282523,41.61495431158897,0 1.015771178786924,41.61504792989958,0 1.015539147557534,41.61507329088239,0 1.015254280981646,41.61490084479813,0 1.014826720434159,41.61469843977243,0 1.014513774814001,41.61452565541492,0 1.014328654395966,41.61445873383152,0 1.014174725753954,41.61461516821704,0 1.013752348174621,41.61519741867924,0 1.013416945140415,41.61553454873781,0 1.01308093664179,41.61589865734609,0 1.012867291861244,41.61622981575832,0 1.012683069541764,41.61653289425674,0 1.01240076800218,41.61679943976395,0 1.012088403025255,41.61730967913557,0 1.011823774931297,41.61763616148368,0 1.011746425541844,41.6177776948524,0 1.011697949790651,41.61793123439274,0 1.011405394619302,41.61823730348426,0 1.011124249692983,41.6184781825331,0 1.010954024317567,41.61869454792486,0 1.010864668201041,41.61878412402508,0 1.01086852293879,41.61898244433731,0 1.011023686291037,41.6191692594205,0 1.011195452873155,41.61932340910591,0 1.011449200816392,41.61942817039114,0 1.011711339119317,41.61937041278284,0 1.011801501144483,41.6193536414472,0 1.011895317836398,41.61941935102244,0 1.011970063603334,41.61959335049478,0 1.011948252616777,41.61977003749912,0 1.011924012224263,41.61988865366113,0 1.011774698096701,41.61996264793117,0 1.011225714621102,41.62021484441369,0 1.010645932320233,41.62055478398676,0 1.010239897313276,41.62080848824819,0 1.009811874876103,41.62104485706946,0 1.009428256008211,41.62126052805347,0 1.00921422524374,41.62140650330753,0 1.009121601836276,41.62152522557587,0 1.0092201929361,41.62170316830954,0 1.009318305865681,41.62180322579187,0 1.00918924988272,41.62194142979976,0 1.009564836767913,41.62233996857649,0 1.00989308047355,41.62265979052776,0 1.009931776874333,41.6228587693911,0 1.009617696777563,41.62295741514708,0 1.008990835101835,41.62305513832426,0 1.008486282061167,41.62317812080762,0 1.007737949002447,41.62344832874377,0 1.007532020403934,41.62358464129716,0 1.007028138183825,41.62413846258214,0 1.006640846140749,41.62456600038202,0 1.006448236579769,41.62476821470172,0 1.006172422444638,41.62504657143036,0 1.006036585989294,41.62518185495365,0 1.005469666390668,41.62455276486632,0 
			</coordinates>
		</LineString>
		<atom:link rel="app" href="https://www.google.com/earth/about/versions/#earth-pro" title="Google Earth Pro 7.3.7.1155"></atom:link>
	</Placemark>
</Document>
</kml>
