<?xml version="1.0" encoding="UTF-8"?>
<kml xmlns="http://www.opengis.net/kml/2.2" xmlns:gx="http://www.google.com/kml/ext/2.2" xmlns:kml="http://www.opengis.net/kml/2.2" xmlns:atom="http://www.w3.org/2005/Atom">
<Document>
	<name>Guissona Backyard 2025.kml</name>
	<Style id="lineStyle00">
		<LineStyle>
			<color>f03399ff</color>
			<width>4</width>
		</LineStyle>
	</Style>
	<StyleMap id="lineStyle11">
		<Pair>
			<key>normal</key>
			<styleUrl>#lineStyle00</styleUrl>
		</Pair>
		<Pair>
			<key>highlight</key>
			<styleUrl>#lineStyle2</styleUrl>
		</Pair>
	</StyleMap>
	<Style id="lineStyle2">
		<LineStyle>
			<color>f03399ff</color>
			<width>4</width>
		</LineStyle>
	</Style>
	<Placemark>
		<name>Guissona Backyard 2025</name>
		<styleUrl>#lineStyle11</styleUrl>
		<MultiGeometry>
			<LineString>
				<coordinates>
					1.296702,41.784813,505.079 1.29673,41.784805,505.005 1.296758,41.7848,505.025 1.296783,41.784795,505.009 1.296808,41.784785,505.0889999999999 1.296837,41.784777,505.091 1.296865,41.784768,505.0489999999999 1.296897,41.784775,505.0470000000001 1.296928,41.784785,505.075 1.296957,41.784797,504.644 1.296978,41.784812,504.687 1.297007,41.784837,504.469 1.297033,41.784855,504.448 1.297055,41.784872,504.4929999999999 1.297077,41.784897,504.865 1.297097,41.784922,504.821 1.297117,41.784947,504.809 1.297137,41.784973,504.8709999999999 1.297153,41.784995,504.893 1.297173,41.785017,504.841 1.297192,41.78504,504.869 1.297208,41.785063,504.877 1.297227,41.785087,504.636 1.297243,41.785108,504.659 1.297262,41.785132,504.631 1.297275,41.785153,504.41 1.29729,41.785177,504.487 1.297302,41.7852,504.442 1.297317,41.785223,504.626 1.297332,41.785247,504.609 1.297345,41.785268,504.43 1.297362,41.785293,504.482 1.297378,41.785318,504.41 1.297393,41.785343,504.488 1.297407,41.785367,504.446 1.297418,41.785388,504.435 1.297433,41.785413,504.098 1.297445,41.785435,504.02 1.29746,41.78546,504.029 1.297475,41.785483,503.833 1.297492,41.785507,503.8229999999999 1.297507,41.785532,503.815 1.29752,41.785557,503.809 1.297537,41.785583,503.885 1.29755,41.78561,503.847 1.297567,41.785635,503.625 1.297577,41.785657,503.6729999999999 1.29759,41.785678,503.681 1.297602,41.7857,503.68 1.297615,41.785722,503.213 1.29763,41.785745,503.265 1.297642,41.785767,503.2739999999999 1.297657,41.78579,503.271 1.297675,41.785813,503.4409999999999 1.29769,41.785835,503.415 1.297705,41.785858,503.4089999999999 1.297718,41.78588,503.489 1.297733,41.785903,503.241 1.297747,41.785925,503.289 1.297762,41.785947,503.297 1.297773,41.785967,503.035 1.297785,41.785987,503.094 1.297798,41.78601,503.0169999999999 1.29781,41.786032,503.029 1.297825,41.786053,503.278 1.297838,41.786073,503.283 1.297857,41.786095,503.225 1.297872,41.786117,503.2169999999999 1.297885,41.786137,503.209 1.297898,41.786158,503.29 1.29791,41.786177,503.282 1.297925,41.786198,503.2099999999999 1.297938,41.78622,503.028 1.297948,41.78624,503.076 1.29796,41.786262,503.065 1.297972,41.786282,503.068 1.297983,41.786303,503.08 1.297993,41.786323,503.059 1.298007,41.786345,503.023 1.29802,41.786367,503.083 1.298032,41.786387,503.011 1.298047,41.786408,503.009 1.29806,41.786428,503.044 1.298077,41.786452,503.0559999999999 1.29809,41.786472,503.074 1.298102,41.786493,503.052 1.298115,41.786513,503.0599999999999 1.298125,41.786533,503.079 1.298138,41.786555,503.032 1.29815,41.786575,503.014 1.298167,41.786595,503.0529999999999 1.298183,41.786612,503.0820000000001 1.298203,41.786628,503.0429999999999 1.298223,41.786645,503.0169999999999 1.298242,41.786662,503.009 1.298258,41.786682,502.67 1.298273,41.7867,502.652 1.298292,41.786718,502.6499999999999 1.29831,41.786738,502.6279999999999 1.29833,41.786758,502.646 1.298352,41.786775,502.675 1.298375,41.786793,502.438 1.298393,41.78681,502.47 1.29841,41.78683,502.449 1.298428,41.786848,502.644 1.298448,41.786865,502.605 1.298473,41.786878,502.615 1.298505,41.786885,502.609 1.298533,41.786883,502.646 1.298562,41.786878,502.678 1.298583,41.786868,502.836 1.29861,41.786862,502.844 1.29864,41.786858,502.8220000000001 1.298673,41.78685,502.8709999999999 1.298707,41.786843,502.884 1.298735,41.786835,502.856 1.298763,41.786825,503.075 1.29879,41.786815,503.2379999999999 1.298817,41.786807,503.2699999999999 1.298843,41.7868,503.0169999999999 1.298873,41.786792,503.009 1.298898,41.786782,503.6549999999999 1.298922,41.786775,503.627 1.298943,41.786768,503.245 1.298962,41.786758,503.283 1.298982,41.78675,503.411 1.299023,41.786732,503.6299999999999 1.299047,41.786717,503.663 1.299078,41.786688,504.2749999999999 1.299093,41.786672,504.234 1.299102,41.786653,504.288 1.299105,41.786618,504.424 1.299107,41.786598,504.426 1.299107,41.78658,504.609 1.299105,41.786563,504.87 1.299105,41.786533,505.012 1.299105,41.7865,505.07 1.29911,41.786467,505.2379999999999 1.29912,41.786437,505.696 1.299133,41.786405,505.835 1.299142,41.786373,505.848 1.299147,41.786347,506.23 1.29915,41.786308,506.0189999999999 1.299163,41.786272,506.2160000000001 1.299168,41.786255,506.4760000000001 1.299175,41.786222,506.613 1.29918,41.786188,506.609 1.299192,41.786153,507.073 1.299213,41.786125,507.095 1.299245,41.786098,507.253 1.299283,41.786065,507.261 1.29931,41.786045,507.449 1.299338,41.786028,507.668 1.299365,41.786015,507.811 1.299392,41.786005,507.893 1.299415,41.785993,508.082 1.299437,41.78598,508.043 1.299458,41.785967,508.264 1.29948,41.78595,508.41 1.299498,41.785935,508.609 1.299517,41.785918,509.026 1.299538,41.785902,509.258 1.29956,41.785887,509.426 1.299585,41.785872,509.434 1.299613,41.785858,509.642 1.299648,41.785845,509.661 1.299678,41.785832,509.624 1.29971,41.78582,509.826 1.29974,41.785812,510.035 1.299768,41.785805,510.086 1.299798,41.785797,510.06 1.299828,41.785787,510.2259999999999 1.29986,41.785782,510.209 1.29989,41.785777,510.21 1.29992,41.785772,510.422 1.299952,41.785768,510.67 1.29998,41.785767,511.068 1.300012,41.785763,511.0459999999999 1.30004,41.785762,510.8849999999999 1.300068,41.785755,510.8779999999999 1.3001,41.785748,511.0599999999999 1.300127,41.785745,511.069 1.300157,41.785742,511.083 1.300185,41.785735,511.025 1.300215,41.785727,510.817 1.300245,41.785718,510.809 1.300272,41.785707,510.88 1.300298,41.78569,510.8720000000001 1.30032,41.785677,511.2699999999999 1.300342,41.78566,511.278 1.300362,41.785643,511.466 1.300378,41.785623,511.415 1.300395,41.7856,511.4879999999999 1.300403,41.785577,511.48 1.300413,41.785558,511.499 1.300418,41.78555,511.467 1.300428,41.78553,511.681 1.300458,41.785503,511.619 1.30049,41.785475,511.809 1.30052,41.785445,511.838 1.300538,41.785432,512.0599999999999 1.300568,41.78541,512.288 1.3006,41.785383,512.296 1.300633,41.785355,512.414 1.300653,41.785338,512.423 1.300678,41.785322,512.426 1.300703,41.785305,512.478 1.300727,41.785288,512.617 1.300748,41.785272,512.6559999999999 1.30077,41.785255,512.659 1.300793,41.785237,512.814 1.300813,41.785218,512.809 1.300833,41.785202,512.857 1.300855,41.785185,512.889 1.300877,41.785167,513.067 1.300893,41.785147,513.0650000000001 1.300907,41.785125,513.043 1.300918,41.785107,513.072 1.300928,41.785088,513.275 1.300935,41.785072,513.247 1.30094,41.785052,513.216 1.300945,41.78503,513.478 1.30095,41.785012,513.433 1.300953,41.784992,513.826 1.300955,41.784975,514.009 1.300958,41.784957,514.029 1.300967,41.784925,514.2809999999999 1.300985,41.78489,514.4690000000001 1.301007,41.784872,514.467 1.301032,41.784855,514.645 1.301057,41.784837,514.634 1.301083,41.78482,514.627 1.301108,41.784802,514.859 1.301132,41.784785,515.018 1.301153,41.784768,515.0170000000001 1.301175,41.784752,515.087 1.301197,41.784737,515.015 1.301218,41.784717,515.2089999999999 1.301238,41.7847,515.253 1.301258,41.784683,515.475 1.301277,41.784667,515.433 1.301297,41.78465,515.4109999999999 1.301317,41.784635,515.449 1.30133,41.784622,515.248 1.301348,41.784603,515.241 1.301367,41.784588,515.223 1.301387,41.784573,515.212 1.301405,41.784562,515.213 1.301422,41.78455,515.043 1.301448,41.784532,515.407 1.301478,41.784505,515.409 1.301507,41.784482,515.4930000000001 1.301532,41.784462,515.885 1.301558,41.784433,515.853 1.301597,41.784397,516.071 1.301617,41.784378,516.039 1.301637,41.78436,516.068 1.301652,41.784343,516.0309999999999 1.30167,41.784327,516.453 1.301688,41.78431,516.482 1.301708,41.784292,516.677 1.301725,41.784277,517.061 1.301743,41.784257,517.027 1.301758,41.784238,517.009 1.301777,41.784222,517.029 1.301795,41.784205,517.0410000000001 1.301815,41.784185,517.029 1.301835,41.784165,517.097 1.301858,41.784145,517.095 1.301875,41.784127,517.014 1.30189,41.784107,517.087 1.301903,41.784087,517.049 1.301915,41.784067,517.098 1.301935,41.784048,517.274 1.301952,41.784027,517.256 1.301967,41.78401,517.221 1.301983,41.783993,517.2089999999999 1.302,41.783975,517.239 1.302015,41.783963,517.481 1.302022,41.783952,517.649 1.302045,41.783925,518.0170000000001 1.302068,41.783903,518.015 1.302098,41.78388,518.014 1.302123,41.783853,518.087 1.302148,41.783817,518.029 1.302163,41.783798,518.078 1.302182,41.783778,518.085 1.302202,41.78376,518.0890000000001 1.302227,41.783743,518.0170000000001 1.302252,41.783732,518.009 1.302277,41.78372,518.01 1.302303,41.783705,517.8920000000001 1.30233,41.783693,517.48 1.302353,41.783682,517.418 1.30238,41.783673,517.6660000000001 1.30241,41.783663,517.6849999999999 1.30244,41.78366,517.658 1.302473,41.783657,517.62 1.302503,41.783655,517.649 1.302537,41.783655,517.441 1.30257,41.783658,517.2809999999999 1.302602,41.783665,517.2089999999999 1.302635,41.783668,517.2089999999999 1.302667,41.783673,517.056 1.302698,41.783677,517.068 1.302732,41.78368,517.056 1.302762,41.783685,517.024 1.302797,41.783692,517.0119999999999 1.302827,41.783698,517.021 1.30286,41.783702,517.044 1.302892,41.78371,517.0359999999999 1.302923,41.783713,517.265 1.302955,41.783717,517.2380000000001 1.302987,41.783725,517.27 1.30302,41.78373,517.217 1.30305,41.783733,517.2089999999999 1.30308,41.783733,517.255 1.303112,41.783738,517.287 1.303145,41.78374,517.295 1.303173,41.783743,517.093 1.303202,41.783747,517.011 1.30323,41.78375,517.05 1.303258,41.783755,517.223 1.303288,41.783757,517.225 1.303317,41.783762,517.294 1.303345,41.783763,517.2619999999999 1.303375,41.783767,517.283 1.303403,41.783768,517.211 1.303435,41.78377,517.2089999999999 1.303463,41.783775,517.478 1.303492,41.783778,517.67 1.303523,41.783785,517.658 1.303552,41.78379,517.646 1.303582,41.7838,517.614 1.303608,41.783805,517.6130000000001 1.303637,41.783815,517.646 1.303663,41.783827,517.4880000000001 1.303692,41.783838,517.427 1.30372,41.78385,517.687 1.30375,41.783858,517.6420000000001 1.303777,41.783865,517.626 1.303805,41.783873,517.609 1.30383,41.783883,517.6799999999999 1.30385,41.783893,517.832 1.30387,41.783902,517.8200000000001 1.303888,41.78391,517.838 1.303912,41.783918,517.686 1.303957,41.78393,517.455 1.304,41.783943,517.638 1.304038,41.783958,517.66 1.30407,41.783982,517.819 1.304102,41.784005,517.675 1.304133,41.784033,517.828 1.30417,41.784057,517.8200000000001 1.304188,41.784072,518.2089999999999 1.304207,41.78409,518.239 1.304225,41.784108,518.491 1.304247,41.784127,518.489 1.304273,41.784143,518.0170000000001 1.304298,41.784158,517.885 1.304323,41.784175,517.8440000000001 1.30435,41.78419,517.817 1.304373,41.784207,517.8390000000001 1.3044,41.784222,517.818 1.304423,41.784233,517.836 1.304447,41.784247,517.817 1.304472,41.784262,518.018 1.304495,41.784275,518.009 1.30452,41.78429,518.0650000000001 1.304545,41.784307,517.8869999999999 1.304572,41.784322,517.8150000000001 1.304595,41.784337,517.8630000000001 1.304618,41.784353,517.831 1.304643,41.78437,517.8099999999999 1.30467,41.784387,517.853 1.304695,41.784403,518.085 1.30472,41.784422,518.044 1.304743,41.784437,517.876 1.304765,41.784455,517.89 1.304787,41.784468,518.019 1.304807,41.784485,518.009 1.304828,41.7845,517.869 1.304848,41.784517,517.831 1.304872,41.784535,517.829 1.304895,41.784553,518.037 1.30492,41.784567,518.0650000000001 1.304943,41.78458,518.0940000000001 1.304965,41.784597,518.057 1.304988,41.784613,518.099 1.30501,41.78463,518.028 1.30503,41.784643,518.038 1.305052,41.784658,518.0700000000001 1.305073,41.784673,518.217 1.305095,41.78469,518.2089999999999 1.305113,41.784708,518.295 1.30513,41.784727,518.447 1.305147,41.784743,518.475 1.305168,41.784758,518.633 1.305188,41.784777,518.611 1.305205,41.784793,518.4400000000001 1.305225,41.784808,518.263 1.30525,41.784822,518.215 1.305277,41.784833,518.234 1.305303,41.784843,518.4589999999999 1.305332,41.784853,518.403 1.305357,41.784863,518.423 1.305378,41.784868,518.409 1.305397,41.784875,518.497 1.305415,41.78488,518.4690000000001 1.305457,41.784887,518.487 1.3055,41.784895,518.485 1.305538,41.784903,518.643 1.305575,41.784912,518.682 1.305612,41.78492,518.635 1.305648,41.784932,518.667 1.305687,41.784947,518.636 1.305715,41.784962,518.813 1.305742,41.784967,518.843 1.305748,41.784962,518.607 1.305798,41.784947,518.409 1.30589,41.784928,518.633 1.30594,41.78492,518.6849999999999 1.305988,41.78491,518.633 1.306032,41.784895,518.691 1.306073,41.784875,518.619 1.306108,41.784857,518.878 1.306145,41.784835,518.831 1.30618,41.784817,518.843 1.306215,41.784798,519.092 1.306252,41.784782,519.0170000000001 1.306288,41.78476,519.087 1.306318,41.784735,518.8150000000001 1.306345,41.78471,518.809 1.306378,41.784683,518.893 1.306415,41.78466,518.845 1.30645,41.784637,519.073 1.306485,41.784613,519.471 1.306517,41.784588,519.489 1.30655,41.784568,519.298 1.306582,41.78455,519.241 1.306615,41.784533,519.663 1.30665,41.784517,519.852 1.30668,41.784502,519.874 1.306708,41.784487,519.856 1.306725,41.784473,520.221 1.306738,41.784463,520.2089999999999 1.306755,41.784452,520.249 1.306767,41.784443,520.0309999999999 1.306773,41.784443,520.279 1.30683,41.784422,520.2670000000001 1.306917,41.784412,520.465 1.306962,41.784422,520.224 1.307002,41.784437,520.217 1.307035,41.784453,520.299 1.307068,41.784468,520.288 1.307093,41.784488,520.239 1.307117,41.784508,520.201 1.307138,41.784523,520.221 1.307162,41.784538,520.409 1.30719,41.784557,520.655 1.307215,41.784573,520.677 1.30723,41.784585,520.675 1.307243,41.784597,520.683 1.307258,41.784602,520.651 1.307288,41.784618,520.6900000000001 1.307317,41.784628,520.663 1.307347,41.784637,520.6849999999999 1.307377,41.784652,520.614 1.30741,41.784665,520.832 1.307435,41.784672,520.692 1.30745,41.784672,521.011 1.307472,41.784668,520.809 1.30748,41.784665,520.465 1.307532,41.784692,519.097 1.307573,41.78473,519.845 1.307573,41.784753,520.813 1.307565,41.78478,521.451 1.307555,41.784803,521.6900000000001 1.307552,41.784827,522.013 1.307542,41.784837,522.425 1.307563,41.78483,522.824 1.307595,41.784793,522.883 1.307603,41.784763,522.625 1.307617,41.784742,522.617 1.307628,41.784727,522.609 1.307633,41.78472,522.63 1.307653,41.784675,522.622 1.307638,41.78461,522.66 1.307612,41.784578,522.6180000000001 1.307578,41.784553,522.636 1.30754,41.78453,522.4349999999999 1.307498,41.78451,522.278 1.307463,41.784493,522.0700000000001 1.30743,41.784477,522.079 1.307397,41.784458,522.0170000000001 1.307365,41.784442,522.087 1.307332,41.784422,522.015 1.307298,41.784402,522.009 1.30727,41.784382,521.453 1.307242,41.784358,521.465 1.307217,41.784337,521.4829999999999 1.307193,41.784315,521.421 1.307177,41.784292,521.499 1.307167,41.784265,521.278 1.307165,41.78424,521.0410000000001 1.307167,41.784213,521.043 1.30717,41.784185,521.062 1.307175,41.78416,521.051 1.307185,41.784133,521.201 1.307198,41.784108,521.211 1.307212,41.784083,521.2089999999999 1.307225,41.78406,521.2670000000001 1.307242,41.784038,521.2190000000001 1.307258,41.784017,521.247 1.307277,41.783998,521.485 1.307292,41.783985,521.433 1.307302,41.783972,521.452 1.307312,41.783958,521.655 1.307333,41.783932,521.8869999999999 1.307352,41.783902,521.856 1.30737,41.783872,522.015 1.307387,41.783843,522.0650000000001 1.307397,41.783812,522.211 1.307408,41.78377,522.2089999999999 1.307415,41.78374,522.293 1.307423,41.783718,522.245 1.30743,41.783695,522.293 1.307438,41.78367,522.671 1.307443,41.783643,522.629 1.30745,41.783618,522.688 1.307453,41.783592,522.631 1.307462,41.783563,523.073 1.307472,41.783533,523.022 1.307485,41.783508,523.0170000000001 1.3075,41.78348,523.287 1.307515,41.783452,523.415 1.307532,41.783425,523.609 1.307548,41.7834,523.843 1.307558,41.783383,524.0549999999999 1.30756,41.783372,524.063 1.307565,41.783367,524.091 1.307577,41.783348,524.069 1.307595,41.783333,524.038 1.307613,41.783323,524.091 1.307632,41.783307,524.013 1.30764,41.783287,524.0119999999999 1.307665,41.78326,524.023 1.307695,41.783227,523.683 1.30771,41.783205,523.611 1.30773,41.783182,523.609 1.307752,41.78316,523.814 1.307772,41.783138,524.056 1.307797,41.78312,524.294 1.30782,41.783102,524.212 1.307845,41.783083,524.23 1.307872,41.783065,524.279 1.307897,41.783045,524.282 1.307918,41.783028,524.284 1.307942,41.783012,524.223 1.307967,41.782997,524.249 1.307992,41.78298,524.202 1.308015,41.782962,524.222 1.308038,41.782942,524.2089999999999 1.308062,41.78292,524.226 1.308087,41.782902,524.278 1.308112,41.782883,524.226 1.308137,41.782867,524.2140000000001 1.30816,41.782848,524.222 1.308182,41.78283,524.271 1.308203,41.782812,524.224 1.308223,41.782792,524.496 1.308245,41.782768,524.495 1.308267,41.782748,524.422 1.308288,41.78273,524.462 1.308308,41.782712,524.408 1.308328,41.782693,524.409 1.30835,41.782677,524.4640000000001 1.308373,41.782658,524.476 1.308397,41.782642,524.474 1.308418,41.782622,524.412 1.308438,41.782603,524.47 1.308458,41.782585,524.499 1.30848,41.782567,524.652 1.308503,41.782548,524.684 1.308523,41.78253,524.843 1.30854,41.782515,524.846 1.308562,41.782498,525.088 1.308582,41.782483,525.016 1.308603,41.782468,525.009 1.308623,41.782453,525.086 1.308645,41.782438,525.298 1.308665,41.782423,525.446 1.308688,41.782407,525.474 1.30871,41.782388,525.212 1.308733,41.782373,525.2910000000001 1.308753,41.782358,525.284 1.308778,41.782345,525.436 1.308802,41.78233,525.455 1.308825,41.782315,525.415 1.308848,41.782302,525.665 1.30887,41.782285,525.611 1.308892,41.78227,525.809 1.308915,41.782252,525.853 1.308938,41.782235,525.835 1.308963,41.782217,525.833 1.308983,41.782203,525.841 1.309007,41.78219,525.849 1.30903,41.78218,525.838 1.309057,41.782173,525.891 1.309087,41.782172,525.823 1.309118,41.782173,525.872 1.309148,41.78218,526.0940000000001 1.30918,41.782187,526.057 1.309212,41.782197,525.822 1.309243,41.782208,525.809 1.309275,41.782218,526.071 1.309307,41.78223,526.2329999999999 1.309338,41.782242,526.2910000000001 1.30937,41.782252,526.029 1.3094,41.782258,526.027 1.30943,41.782267,526.066 1.309463,41.782273,526.289 1.309493,41.78228,526.2809999999999 1.309527,41.782283,526.22 1.309558,41.782287,526.487 1.30959,41.782285,526.6420000000001 1.309622,41.782287,526.626 1.309653,41.782285,526.609 1.309683,41.782283,526.4299999999999 1.309713,41.78228,526.452 1.309742,41.782277,526.4299999999999 1.309772,41.782268,526.428 1.309798,41.78226,526.446 1.309827,41.782255,526.655 1.309857,41.782248,526.678 1.309887,41.782243,526.63 1.309915,41.782238,526.689 1.309943,41.782232,526.897 1.30997,41.782225,527.223 1.309997,41.78222,527.225 1.310023,41.782213,527.2089999999999 1.310055,41.782212,527.221 1.310083,41.78221,527.263 1.310115,41.782203,527.461 1.310147,41.7822,527.439 1.310177,41.782198,527.417 1.310208,41.782197,527.486 1.310238,41.782197,527.449 1.31027,41.782197,527.461 1.310302,41.782197,527.46 1.310333,41.782197,527.422 1.310363,41.782198,527.462 1.310395,41.782197,527.408 1.310425,41.782198,527.609 1.310457,41.782198,527.674 1.310488,41.7822,527.6660000000001 1.310522,41.782202,527.664 1.310552,41.782207,527.6420000000001 1.310582,41.782208,527.63 1.310605,41.782212,527.629 1.310628,41.782213,527.6319999999999 1.310648,41.782218,527.674 1.310687,41.782225,527.823 1.310723,41.782233,527.842 1.310762,41.782245,527.822 1.31079,41.78226,528.014 1.310808,41.78228,528.2089999999999 1.310832,41.782302,528.296 1.31085,41.782322,528.418 1.310872,41.782337,528.686 1.310893,41.78234,528.884 1.31091,41.782355,529.022 1.310925,41.782378,528.891 1.31096,41.782398,529.224 1.310988,41.782413,529.426 1.311013,41.782428,529.475 1.311033,41.782438,529.436 1.311065,41.782445,529.617 1.3111,41.78246,530.018 1.311143,41.782468,530.009 1.311188,41.782482,530.225 1.311223,41.782493,530.287 1.311263,41.782508,530.4349999999999 1.31131,41.782522,530.4829999999999 1.311347,41.782533,530.871 1.311387,41.782543,531.61 1.311423,41.782553,531.673 1.311455,41.782565,531.885 1.311493,41.782572,532.0839999999999 1.311533,41.782572,532.447 1.311567,41.782578,532.429 1.311605,41.782583,532.621 1.311647,41.782583,533.009 1.311685,41.782588,533.246 1.311725,41.782597,533.298 1.31176,41.782605,533.436 1.311795,41.782612,534.0839999999999 1.311833,41.782617,533.622 1.311875,41.782615,533.651 1.311913,41.782613,533.634 1.311953,41.782612,533.6559999999999 1.311993,41.78261,533.665 1.312033,41.782607,533.497 1.312075,41.782605,533.623 1.312118,41.782607,533.425 1.312167,41.782608,533.609 1.312198,41.782607,533.831 1.312228,41.78261,533.873 1.312263,41.782615,533.6609999999999 1.312293,41.782617,533.689 1.31232,41.782617,534.057 1.31235,41.782617,534.096 1.312375,41.782618,534.279 1.312393,41.78262,534.2809999999999 1.312433,41.78263,534.25 1.312475,41.78264,534.279 1.312518,41.782647,534.605 1.312562,41.782647,535.025 1.3126,41.782647,535.609 1.312638,41.782652,535.2190000000001 1.312677,41.782657,535.2809999999999 1.312722,41.782658,535.419 1.31277,41.782662,535.6369999999999 1.312807,41.782667,535.6849999999999 1.312845,41.782678,535.614 1.312885,41.782695,535.647 1.312923,41.782703,535.859 1.312967,41.782707,536.088 1.313005,41.782712,536.468 1.313033,41.782722,536.442 1.31307,41.782722,536.626 1.313112,41.78272,537.009 1.313152,41.782717,537.288 1.31319,41.782717,537.63 1.31323,41.78272,537.478 1.313268,41.782723,537.096 1.313312,41.782728,537.0940000000001 1.313352,41.78273,537.2430000000001 1.313397,41.782725,537.246 1.31344,41.782728,537.4880000000001 1.31348,41.78273,537.057 1.313522,41.782737,537.447 1.313568,41.782742,537.829 1.31361,41.782747,538.021 1.313657,41.78275,538.009 1.313702,41.782752,538.256 1.313748,41.782745,538.248 1.313788,41.782747,538.466 1.313828,41.78275,538.484 1.313872,41.782758,538.822 1.313913,41.782765,538.831 1.313955,41.782775,539.224 1.313993,41.78277,539.6559999999999 1.314037,41.782765,539.895 1.314077,41.782765,540.225 1.314117,41.782775,540.426 1.314153,41.782782,540.6079999999999 1.314197,41.782782,540.809 1.31424,41.782788,541.074 1.314277,41.782798,541.6559999999999 1.314317,41.782807,541.684 1.314352,41.782818,541.832 1.314388,41.782828,542.4400000000001 1.314427,41.78283,542.649 1.314463,41.782835,543.282 1.3145,41.782845,543.814 1.314528,41.782855,544.253 1.314565,41.782862,545.423 1.31461,41.782867,545.4829999999999 1.314652,41.782878,545.011 1.314688,41.782885,545.009 1.314728,41.782898,545.694 1.31476,41.782912,545.6660000000001 1.3148,41.782917,546.0839999999999 1.314842,41.782922,546.872 1.314887,41.782925,546.83 1.314928,41.782932,546.899 1.314968,41.782935,546.8819999999999 1.315005,41.78294,546.854 1.315042,41.782952,546.873 1.31507,41.782965,546.847 1.31511,41.782973,547.029 1.315148,41.782978,547.821 1.315188,41.782985,547.809 1.315228,41.782988,548.456 1.315272,41.782988,548.668 1.315315,41.782982,548.856 1.315357,41.782977,549.074 1.315397,41.782973,549.232 1.315433,41.782973,549.2809999999999 1.315448,41.78299,549.644 1.315422,41.783025,550.816 1.315405,41.783045,551.225 1.315388,41.783073,551.634 1.315373,41.783103,551.855 1.315358,41.783135,551.8099999999999 1.315332,41.78317,552.009 1.315313,41.783185,551.835 1.315287,41.783202,551.837 1.315255,41.783218,551.845 1.31522,41.783232,551.443 1.315187,41.783245,551.081 1.315152,41.783257,550.8200000000001 1.315115,41.783265,550.8630000000001 1.315078,41.783273,550.615 1.315043,41.783283,550.484 1.315005,41.783292,550.439 1.31497,41.7833,550.201 1.314933,41.78331,550.021 1.314898,41.783318,550.009 1.314862,41.78333,549.4349999999999 1.314825,41.78334,549.417 1.31479,41.78335,549.485 1.314757,41.783365,549.443 1.314725,41.783378,549.461 1.314695,41.783393,549.24 1.314665,41.783405,549.213 1.314635,41.783418,549.0549999999999 1.314605,41.78343,549.284 1.314575,41.783442,549.014 1.31454,41.783453,549.054 1.314507,41.783465,549.009 1.314475,41.783478,549.009 1.314443,41.783493,548.8630000000001 1.31441,41.783512,548.635 1.31438,41.783528,548.4829999999999 1.314348,41.783543,547.841 1.31432,41.78356,547.859 1.314288,41.783575,547.8680000000001 1.314258,41.78359,547.461 1.314227,41.783602,547.283 1.314192,41.783617,547.092 1.314155,41.783628,546.8440000000001 1.314122,41.783642,546.405 1.314088,41.783653,546.015 1.31405,41.78367,546.009 1.314015,41.783678,546.086 1.313982,41.783688,545.898 1.31395,41.783698,545.896 1.313917,41.783708,545.614 1.313885,41.783718,545.272 1.313853,41.783727,545.261 1.31382,41.783737,545.254 1.313792,41.78375,545.216 1.313757,41.783762,545.215 1.313723,41.783773,545.298 1.31369,41.783783,545.215 1.313657,41.783797,545.226 1.31362,41.78381,545.009 1.313583,41.783822,544.831 1.313548,41.783832,544.283 1.313513,41.78384,544.061 1.31348,41.783848,544.059 1.313445,41.78386,543.857 1.313412,41.783868,543.856 1.313378,41.78388,543.879 1.313347,41.783892,543.611 1.313312,41.7839,543.42 1.313277,41.78391,543.2859999999999 1.313245,41.783918,543.26 1.313208,41.783925,543.026 1.313173,41.78393,543.009 1.313135,41.783935,542.8200000000001 1.313098,41.783938,542.6319999999999 1.313065,41.783945,542.4299999999999 1.313037,41.783953,542.468 1.313008,41.78396,542.456 1.312975,41.783967,542.225 1.312947,41.783973,542.048 1.312915,41.783982,542.0700000000001 1.312882,41.783988,542.039 1.312843,41.783997,541.659 1.312805,41.784003,541.603 1.312768,41.784008,541.423 1.312735,41.784015,541.2089999999999 1.312698,41.784022,540.867 1.312662,41.784027,540.879 1.31263,41.784035,540.667 1.312593,41.784043,540.6950000000001 1.312558,41.784053,540.413 1.312523,41.784063,540.052 1.312487,41.784075,540.0549999999999 1.312452,41.784085,540.097 1.312418,41.784097,539.816 1.312385,41.784107,539.467 1.31235,41.784115,539.481 1.312315,41.784125,539.419 1.31228,41.784135,539.2089999999999 1.312247,41.784147,539.048 1.312213,41.784157,538.84 1.312178,41.784167,538.448 1.312147,41.784177,538.256 1.312113,41.784185,538.244 1.312082,41.784197,538.2329999999999 1.312047,41.784207,538.236 1.312015,41.784217,538.218 1.311985,41.784225,538.057 1.31195,41.784237,537.657 1.311918,41.784243,537.2 1.311888,41.784252,537.22 1.311858,41.78426,537.009 1.311827,41.784268,536.837 1.311795,41.784278,536.699 1.311763,41.784288,536.2569999999999 1.31173,41.784298,536.215 1.3117,41.784305,536.293 1.311665,41.784312,536.082 1.311633,41.784317,536.025 1.3116,41.784325,535.827 1.311562,41.784335,535.816 1.311525,41.784343,535.223 1.311488,41.784353,535.283 1.311453,41.784363,535.211 1.311417,41.784373,535.009 1.311383,41.784383,535.034 1.311347,41.784393,534.886 1.311315,41.784405,534.684 1.311278,41.784415,534.422 1.311242,41.784423,534.46 1.311208,41.784432,534.289 1.311172,41.784437,534.252 1.31114,41.784447,534.044 1.311107,41.784453,534.023 1.311073,41.784463,533.624 1.31104,41.784472,533.604 1.311005,41.784482,533.414 1.310973,41.784488,533.2089999999999 1.31094,41.784498,533.2140000000001 1.310908,41.78451,532.646 1.310875,41.784522,532.644 1.310843,41.784532,532.862 1.31081,41.784542,532.42 1.310777,41.78455,532.249 1.310743,41.784557,532.022 1.31071,41.784563,531.894 1.310678,41.784568,531.853 1.310643,41.784575,531.667 1.310608,41.784582,531.681 1.310573,41.784588,531.619 1.310537,41.784595,531.409 1.3105,41.784602,531.218 1.310467,41.784608,531.24 1.310437,41.784612,531.288 1.310403,41.78462,531.026 1.310368,41.784627,531.044 1.310337,41.784635,531.053 1.310308,41.784643,531.026 1.31028,41.784652,531.078 1.310248,41.784658,530.617 1.310217,41.78467,530.438 1.310185,41.784677,530.27 1.310153,41.78468,530.217 1.31012,41.784687,530.009 1.310087,41.784695,530.045 1.310055,41.784697,530.097 1.310023,41.784702,530.025 1.30999,41.784703,530.033 1.309962,41.784707,530.021 1.309932,41.78471,529.87 1.3099,41.784712,529.4829999999999 1.309868,41.784715,529.455 1.309832,41.78472,529.414 1.309795,41.784727,529.4349999999999 1.309758,41.784728,529.2859999999999 1.309725,41.784733,528.814 1.309693,41.78474,528.809 1.309662,41.784747,528.835 1.30963,41.784758,528.897 1.3096,41.784767,528.895 1.309565,41.784773,528.823 1.30953,41.784778,528.481 1.309495,41.784785,528.47 1.309457,41.784793,528.453 1.309425,41.784798,528.425 1.309393,41.784807,528.274 1.309358,41.784817,528.043 1.309323,41.784827,528.064 1.309292,41.78484,527.61 1.30926,41.784853,527.609 1.309227,41.784867,527.676 1.309197,41.784878,527.428 1.309165,41.784892,527.466 1.309137,41.784905,527.424 1.30911,41.784922,527.452 1.309083,41.784935,527.2910000000001 1.309057,41.784948,527.014 1.30903,41.784957,527.016 1.309013,41.784965,526.865 1.308997,41.784975,526.689 1.308965,41.784992,526.606 1.30893,41.78501,526.226 1.308893,41.78503,526.2089999999999 1.30886,41.78505,526.27 1.308835,41.785072,526.232 1.308805,41.785095,526.0599999999999 1.30878,41.785122,525.8579999999999 1.308757,41.78515,525.676 1.30873,41.785173,525.675 1.308702,41.7852,525.698 1.308683,41.785228,525.8200000000001 1.30865,41.785257,525.889 1.308615,41.785285,525.636 1.308593,41.785302,525.617 1.308568,41.785317,525.6180000000001 1.308543,41.785333,525.609 1.308518,41.785347,525.015 1.308492,41.78536,525.027 1.308465,41.785375,525.275 1.308437,41.785387,525.2329999999999 1.308403,41.785395,525.481 1.308368,41.785405,525.22 1.308333,41.785413,525.253 1.3083,41.785425,524.845 1.30827,41.785437,524.824 1.30824,41.785448,524.829 1.30821,41.78546,524.8 1.30818,41.785472,525.02 1.308148,41.785483,524.609 1.308117,41.78549,524.614 1.30808,41.785498,524.696 1.308052,41.785508,524.654 1.308023,41.78552,524.672 1.307993,41.78553,524.6799999999999 1.307962,41.785538,524.639 1.307927,41.785547,524.6420000000001 1.307893,41.785552,524.424 1.307857,41.785557,524.293 1.307822,41.785563,524.293 1.307785,41.785565,524.265 1.307752,41.78557,524.221 1.307717,41.785575,524.009 1.307685,41.785578,524.061 1.307653,41.785583,524.083 1.307618,41.785588,524.021 1.30759,41.785592,524.0890000000001 1.307553,41.785595,524.0170000000001 1.30752,41.785593,524.076 1.307488,41.785597,523.8390000000001 1.307457,41.785598,523.671 1.307425,41.785602,523.49 1.307388,41.785605,523.468 1.307357,41.785607,523.242 1.307323,41.785608,523.226 1.30729,41.785608,523.2089999999999 1.307258,41.78561,523.068 1.307223,41.785615,523.03 1.307192,41.785617,523.058 1.307158,41.785618,523.0359999999999 1.307125,41.78562,523.014 1.307087,41.785623,523.053 1.307053,41.785628,522.846 1.30702,41.78563,522.428 1.306985,41.785632,522.497 1.306952,41.785638,522.439 1.306915,41.785642,522.601 1.306882,41.785648,522.621 1.306848,41.785658,522.409 1.306813,41.785665,522.465 1.306783,41.785673,522.217 1.306748,41.785685,522.265 1.306718,41.785695,522.053 1.306682,41.785703,521.891 1.306652,41.785712,521.86 1.306618,41.78572,521.873 1.306583,41.785727,521.835 1.306547,41.785735,521.824 1.306517,41.785743,521.8920000000001 1.306487,41.78575,522.073 1.306453,41.785758,521.8200000000001 1.306423,41.785767,521.809 1.306393,41.785773,521.631 1.306365,41.785782,521.683 1.306335,41.78579,521.631 1.306303,41.785797,521.619 1.306275,41.785805,521.417 1.30624,41.78581,521.466 1.306212,41.785815,521.479 1.306178,41.785822,521.611 1.306148,41.785823,521.62 1.30612,41.785825,521.258 1.306087,41.785827,521.252 1.306053,41.785825,521.0170000000001 1.30602,41.785827,521.009 1.305985,41.78583,521.047 1.30595,41.785832,520.829 1.305918,41.785833,520.687 1.305887,41.785832,520.675 1.305853,41.785835,520.633 1.30582,41.785837,520.692 1.30579,41.785842,520.675 1.30576,41.785842,520.6369999999999 1.30573,41.785843,520.456 1.305697,41.785845,520.463 1.305667,41.785843,520.044 1.305637,41.785843,520.018 1.305607,41.785843,520.2089999999999 1.305572,41.785847,520.288 1.305542,41.785848,520.28 1.305508,41.785855,520.028 1.305477,41.78586,519.866 1.305445,41.785863,519.824 1.305413,41.785868,519.843 1.305382,41.785868,519.626 1.305347,41.785873,519.638 1.305317,41.785878,519.697 1.305283,41.785887,519.444 1.305253,41.785892,519.205 1.305225,41.7859,519.215 1.305208,41.785905,519.2089999999999 1.305187,41.785912,519.266 1.305127,41.78593,519.298 1.305065,41.785953,519.046 1.305008,41.785978,519.0940000000001 1.304975,41.78599,519.052 1.304915,41.786,519.0309999999999 1.304885,41.786008,518.664 1.304852,41.786017,518.466 1.304818,41.78602,518.475 1.304785,41.786025,518.426 1.304752,41.78603,518.647 1.304715,41.786033,518.611 1.304682,41.786038,518.609 1.30465,41.78604,518.284 1.304618,41.786045,518.0359999999999 1.304583,41.78605,518.0940000000001 1.304548,41.786058,518.242 1.304515,41.786067,518.25 1.30448,41.786075,517.899 1.304448,41.786087,517.622 1.304418,41.7861,517.614 1.304387,41.786113,517.643 1.304358,41.786128,517.693 1.30433,41.786145,517.465 1.304305,41.786162,517.221 1.30428,41.786178,517.2089999999999 1.304252,41.786193,517.261 1.304227,41.786208,517.053 1.3042,41.786227,517.0410000000001 1.304175,41.786243,517.029 1.30415,41.786257,517.077 1.304127,41.786275,516.866 1.3041,41.786292,516.859 1.304075,41.786307,516.611 1.304052,41.786323,516.64 1.304027,41.78634,516.6849999999999 1.303998,41.786357,516.489 1.303975,41.786372,516.417 1.30395,41.78639,516.2089999999999 1.303923,41.786405,515.85 1.303897,41.78642,516.072 1.303868,41.786435,515.84 1.303842,41.786448,515.878 1.303812,41.786465,515.896 1.303783,41.786478,515.4349999999999 1.303757,41.786497,515.028 1.303732,41.786518,515.02 1.303703,41.786535,515.039 1.303678,41.786552,515.093 1.303655,41.786568,515.0650000000001 1.303628,41.786587,515.021 1.303603,41.7866,514.609 1.303577,41.786618,514.4109999999999 1.303552,41.786637,514.453 1.303523,41.786655,514.2809999999999 1.303495,41.786672,514.249 1.303472,41.78669,514.2569999999999 1.303442,41.78671,514.296 1.303417,41.786727,513.869 1.303392,41.786745,513.461 1.303367,41.786762,513.46 1.303343,41.786778,513.449 1.30332,41.786795,513.402 1.303298,41.786813,513.422 1.303273,41.786832,513.409 1.303248,41.78685,513.0359999999999 1.303225,41.786868,513.088 1.3032,41.786887,512.686 1.303177,41.786903,512.624 1.30315,41.786918,512.472 1.303125,41.786933,512.681 1.303098,41.786945,512.454 1.303075,41.786962,512.456 1.30305,41.786977,512.295 1.303025,41.786995,512.016 1.303003,41.787013,511.8759999999999 1.302983,41.78703,511.6129999999999 1.302958,41.787045,511.6089999999999 1.302932,41.787062,511.443 1.302903,41.787078,511.465 1.302878,41.787095,511.493 1.302855,41.787112,511.461 1.302833,41.787128,511.249 1.302812,41.787143,511.028 1.30279,41.787158,510.821 1.302768,41.787178,510.873 1.302745,41.787197,510.812 1.30272,41.787213,510.895 1.302693,41.787232,510.449 1.302667,41.787252,510.223 1.302642,41.787272,510.209 1.302622,41.787292,510.261 1.302603,41.78731,510.043 1.302585,41.787332,510.0410000000001 1.30257,41.787357,510.089 1.302553,41.78738,509.8269999999999 1.302532,41.787402,509.816 1.302512,41.787422,509.889 1.302493,41.787438,509.411 1.302475,41.787462,509.48 1.30246,41.787482,509.413 1.302443,41.787503,509.443 1.30243,41.787525,509.0069999999999 1.302413,41.787547,509.009 1.302397,41.787568,509.083 1.302378,41.787587,508.815 1.302362,41.787608,508.863 1.302345,41.787633,508.851 1.302328,41.787657,508.629 1.30231,41.78768,508.6179999999999 1.302292,41.787703,508.481 1.302273,41.787727,508.223 1.302253,41.787747,508.212 1.302208,41.787783,508.248 1.302185,41.7878,508.261 1.302163,41.787817,508.017 1.30214,41.787833,508.009 1.302112,41.787845,507.826 1.302083,41.787858,507.628 1.30205,41.78787,507.6159999999999 1.30202,41.787882,507.694 1.301988,41.787893,507.422 1.301955,41.787903,507.4809999999999 1.301925,41.787912,507.444 1.301892,41.787918,507.486 1.301862,41.787927,507.265 1.301828,41.787937,507.2769999999999 1.301797,41.787943,507.061 1.301765,41.78795,506.827 1.301732,41.787958,506.809 1.301702,41.787967,506.849 1.30167,41.787977,506.681 1.301638,41.787985,506.639 1.301608,41.787993,506.617 1.301578,41.788003,506.485 1.30155,41.78801,506.214 1.301518,41.788018,506.247 1.301487,41.788025,506.059 1.301457,41.788028,506.038 1.301422,41.788037,506.0439999999999 1.301388,41.788042,505.605 1.301353,41.78805,505.415 1.301318,41.788058,505.4089999999999 1.301287,41.788063,505.286 1.301252,41.788072,505.228 1.301217,41.788077,505.0959999999999 1.301182,41.788083,505.024 1.301152,41.788087,505.022 1.301122,41.788095,505.031 1.30109,41.788102,505.054 1.30106,41.788107,505.036 1.301027,41.788115,504.635 1.300992,41.788123,504.682 1.30096,41.788132,504.4429999999999 1.300927,41.788137,504.417 1.300897,41.788143,504.209 1.300862,41.78815,504.21 1.300827,41.788157,504.422 1.300793,41.788165,504.49 1.300758,41.788173,504.438 1.300728,41.788183,504.4759999999999 1.300697,41.788192,504.2649999999999 1.300665,41.7882,503.848 1.300635,41.788207,503.68 1.300603,41.788213,503.499 1.300573,41.788222,503.294 1.300542,41.788233,503.057 1.30051,41.78824,503.022 1.300477,41.788248,502.809 1.300447,41.78826,502.841 1.300418,41.788272,502.813 1.300388,41.788288,502.831 1.30036,41.788305,502.449 1.300332,41.78832,502.487 1.300305,41.788338,502.4359999999999 1.300277,41.788357,502.4289999999999 1.300253,41.788372,502.491 1.300205,41.788398,502.05 1.300157,41.788422,501.615 1.300113,41.78845,501.665 1.30009,41.788465,501.611 1.300063,41.788502,501.6089999999999 1.300058,41.788523,501.433 1.30006,41.788547,501.465 1.300063,41.788572,501.223 1.300067,41.788595,501.2309999999999 1.300068,41.788617,501.019 1.300063,41.788638,500.888 1.300055,41.788655,500.861 1.300048,41.78867,500.823 1.300032,41.788683,500.812 1.300005,41.788703,500.2689999999999 1.299973,41.788745,499.804 1.299943,41.788762,499.624 1.299928,41.788772,499.6089999999999 1.299917,41.788778,499.618 1.299897,41.788793,499.68 1.299857,41.788817,499.848 1.299817,41.788833,499.8759999999999 1.299767,41.788855,499.494 1.299742,41.788867,499.473 1.299713,41.788872,499.456 1.299687,41.788868,499.678 1.299657,41.78885,499.637 1.299655,41.788833,499.494 1.299652,41.788792,499.857 1.299648,41.788767,500.2219999999999 1.299642,41.788723,500.409 1.299628,41.788678,500.6609999999999 1.29962,41.788653,500.673 1.299615,41.788632,500.6609999999999 1.299607,41.788607,500.669 1.299597,41.788582,500.6669999999999 1.299585,41.78856,500.696 1.299562,41.788538,500.859 1.29953,41.788527,500.891 1.299497,41.788525,500.86 1.29946,41.788528,500.678 1.299422,41.788533,500.4329999999999 1.299383,41.788538,500.2259999999999 1.29932,41.788548,499.4089999999999 1.299293,41.78855,499.419 1.299258,41.788555,499.671 1.299202,41.788567,499.689 1.299143,41.788587,499.8269999999999 1.299115,41.788597,499.675 1.299088,41.788612,499.664 1.29907,41.788627,499.8369999999999 1.29906,41.788652,499.879 1.299057,41.788672,500.0479999999999 1.299058,41.788695,500.2119999999999 1.299063,41.788718,500.6319999999999 1.299068,41.788738,500.605 1.299078,41.78876,500.809 1.299085,41.78878,500.823 1.299092,41.788805,501.095 1.299097,41.788827,501.083 1.299102,41.788852,501.091 1.299108,41.78888,501.0889999999999 1.29912,41.788903,501.098 1.299133,41.788927,501.071 1.299145,41.788947,501.0529999999999 1.299165,41.788967,501.062 1.29919,41.788985,500.856 1.299213,41.788997,500.659 1.299247,41.789003,500.214 1.299278,41.789007,500.209 1.299317,41.789005,500.297 1.299352,41.789005,499.869 1.29939,41.789008,500.027 1.299423,41.789008,500.0549999999999 1.299453,41.789007,499.893 1.299485,41.789002,499.882 1.299515,41.788993,499.855 1.299543,41.788983,499.8869999999999 1.29957,41.788975,499.676 1.299595,41.788968,499.473 1.299622,41.788958,499.485 1.299648,41.788948,499.213 1.29968,41.788938,499.209 1.299703,41.788933,499.459 1.299725,41.788937,499.4809999999999 1.29975,41.788963,499.439 1.299772,41.789003,499.497 1.299785,41.789022,499.4949999999999 1.299803,41.789042,499.444 1.299822,41.789063,499.457 1.299842,41.789082,499.829 1.299863,41.7891,500.068 1.29988,41.789118,499.686 1.2999,41.789137,499.66 1.299913,41.789158,499.626 1.299918,41.78918,499.6089999999999 1.299922,41.789205,499.63 1.299918,41.789232,499.6920000000001 1.29991,41.78926,499.23 1.299898,41.789283,499.038 1.299883,41.789307,498.446 1.299867,41.789328,497.875 1.29985,41.789353,497.478 1.299835,41.789373,497.44 1.29982,41.789398,497.429 1.2998,41.789422,497.458 1.299788,41.789447,497.4519999999999 1.299785,41.789472,497.417 1.299795,41.789488,497.4089999999999 1.29982,41.789498,497.427 1.29985,41.789507,497.699 1.299885,41.78951,497.637 1.299917,41.789512,497.475 1.299952,41.789512,497.693 1.299982,41.789512,497.672 1.300007,41.789517,497.6949999999999 1.30003,41.789517,497.627 1.300052,41.789513,497.6559999999999 1.300093,41.789512,497.899 1.300135,41.789512,497.6070000000001 1.300175,41.789517,497.627 1.300215,41.789532,497.809 1.300252,41.789548,497.881 1.300282,41.789558,497.8229999999999 1.30031,41.789567,497.851 1.300322,41.789572,498.2590000000001 1.30034,41.789605,498.257 1.300383,41.789635,497.886 1.30041,41.789653,497.859 1.300433,41.78967,497.871 1.300458,41.789688,497.89 1.30048,41.789703,498.241 1.300498,41.78972,498.281 1.300522,41.789735,498.209 1.300542,41.789747,498.209 1.300565,41.789758,498.426 1.300587,41.789767,498.898 1.30061,41.78978,499.276 1.30063,41.789795,499.294 1.30065,41.789807,499.292 1.300672,41.78982,499.4409999999999 1.300692,41.789835,499.674 1.300713,41.78985,499.6659999999999 1.30073,41.789865,499.815 1.300745,41.789877,500.059 1.300775,41.789902,500.003 1.300818,41.789927,500.023 1.300835,41.789937,500.009 1.300862,41.789962,500.617 1.300892,41.789983,500.899 1.30092,41.790005,501.047 1.300943,41.790028,501.095 1.30096,41.790058,501.253 1.300973,41.790088,501.622 1.300983,41.790122,501.865 1.300998,41.790153,501.297 1.30101,41.790183,501.0559999999999 1.301023,41.790215,501.084 1.301033,41.790247,501.0069999999999 1.301045,41.79028,501.2169999999999 1.301053,41.790308,501.6089999999999 1.301068,41.790338,501.42 1.301085,41.790368,500.8220000000001 1.301097,41.7904,501.08 1.301105,41.790437,500.888 1.301108,41.790458,500.686 1.30111,41.790482,500.685 1.30112,41.790537,500.688 1.301127,41.79056,500.4300000000001 1.301132,41.790585,500.2289999999999 1.301132,41.79061,499.8869999999999 1.301137,41.790638,499.842 1.30114,41.790662,499.826 1.301147,41.790688,499.809 1.301153,41.790712,499.64 1.301158,41.790735,499.672 1.301165,41.790758,499.49 1.30117,41.790783,499.4280000000001 1.301173,41.790808,499.496 1.30118,41.790828,499.4449999999999 1.30119,41.790848,499.638 1.3012,41.790872,499.6199999999999 1.30121,41.790893,499.689 1.301222,41.790918,499.658 1.30123,41.79094,499.4519999999999 1.301238,41.790962,499.417 1.301247,41.790985,499.4089999999999 1.301253,41.79101,499.447 1.301263,41.791033,499.289 1.301268,41.791062,499.2769999999999 1.301275,41.791087,499.0849999999999 1.30128,41.791112,498.893 1.301288,41.791137,498.8819999999999 1.301292,41.79116,498.845 1.301298,41.791187,498.827 1.301303,41.791212,498.816 1.301307,41.791237,498.889 1.30131,41.79126,498.806 1.301313,41.791288,498.8260000000001 1.301318,41.791312,498.809 1.30132,41.791338,498.89 1.301322,41.791365,499.0919999999999 1.301325,41.791388,499.08 1.30133,41.791413,498.8279999999999 1.301332,41.791437,499.026 1.30133,41.791458,498.8249999999999 1.301323,41.791485,498.848 1.301315,41.791507,498.62 1.301303,41.79153,498.679 1.301288,41.79155,498.665 1.301267,41.791568,498.468 1.301247,41.79159,498.414 1.301227,41.79161,498.209 1.301212,41.791632,498.248 1.301195,41.791653,498.25 1.301182,41.791675,498.448 1.301167,41.791697,498.4759999999999 1.301152,41.791722,498.454 1.301135,41.791743,498.4329999999999 1.301117,41.791763,498.246 1.301098,41.791785,498.288 1.30108,41.791803,498.0369999999999 1.301065,41.791827,498.225 1.301048,41.791848,498.026 1.301037,41.791872,497.808 1.301025,41.791893,497.809 1.30101,41.791915,497.8240000000001 1.30099,41.791927,498.016 1.300962,41.791937,498.0839999999999 1.300932,41.791937,498.052 1.3009,41.791937,497.43 1.300872,41.791935,497.489 1.300842,41.791933,497.232 1.300812,41.791932,497.254 1.300782,41.79193,497.273 1.300753,41.791928,497.2139999999999 1.300723,41.791928,497.254 1.300693,41.79193,497.209 1.300653,41.791947,497.209 1.30064,41.791963,497.273 1.300643,41.791993,497.245 1.300655,41.792037,496.873 1.300668,41.792088,496.641 1.30067,41.792112,496.669 1.30067,41.792135,496.418 1.300675,41.792183,496.431 1.300683,41.79223,496.013 1.300687,41.792255,495.852 1.300687,41.792277,495.625 1.300687,41.792302,495.426 1.300687,41.792323,495.408 1.30069,41.792348,495.209 1.300692,41.792375,495.054 1.300695,41.792398,495.0360000000001 1.300693,41.792423,495.074 1.3007,41.792447,495.052 1.300703,41.79247,495.05 1.300708,41.79249,495.0989999999999 1.300712,41.792513,494.8319999999999 1.300712,41.792535,494.874 1.30071,41.792558,494.893 1.300708,41.792583,494.851 1.300705,41.79261,494.801 1.300708,41.792655,494.811 1.300708,41.79268,494.609 1.300708,41.792705,494.687 1.300708,41.792727,494.679 1.300707,41.792747,494.6969999999999 1.300705,41.79277,494.6249999999999 1.3007,41.792792,494.6429999999999 1.300698,41.792815,494.682 1.300695,41.792835,494.685 1.300693,41.792857,494.6569999999999 1.30069,41.79288,494.496 1.300687,41.792903,494.445 1.300685,41.792927,494.4469999999999 1.30068,41.792952,494.4109999999999 1.300677,41.792977,494.409 1.30067,41.793,494.4759999999999 1.300668,41.793022,494.2679999999999 1.300663,41.793043,494.236 1.30066,41.793065,494.254 1.300653,41.793087,494.282 1.300645,41.793107,493.861 1.30064,41.79313,493.8439999999999 1.300633,41.793153,494.066 1.30063,41.793178,494.295 1.300628,41.793198,494.2789999999999 1.300628,41.793213,494.205 1.300623,41.79323,494.025 1.300622,41.793243,494.009 1.30062,41.793275,494.089 1.300622,41.793307,493.871 1.300617,41.793348,493.869 1.3006,41.7934,494.057 1.300588,41.793447,494.035 1.300578,41.793468,494.064 1.300558,41.793512,493.817 1.300552,41.793532,493.889 1.300542,41.793555,493.638 1.300533,41.793575,493.6949999999999 1.300525,41.793598,493.849 1.300515,41.793618,493.8229999999999 1.300508,41.793642,494.009 1.3005,41.79366,493.841 1.30049,41.793683,493.893 1.300482,41.793705,493.881 1.300475,41.793723,493.829 1.300472,41.793745,494.027 1.300465,41.793765,494.076 1.300468,41.793785,493.849 1.300462,41.7938,493.841 1.300455,41.793815,493.8799999999999 1.300437,41.793843,493.6449999999999 1.300427,41.793877,493.847 1.30042,41.79391,493.811 1.30041,41.793943,494.009 1.300398,41.793978,494.216 1.30039,41.79401,494.2679999999999 1.300378,41.794047,494.2259999999999 1.300375,41.794067,493.8339999999999 1.300368,41.79409,493.822 1.300362,41.794112,494.281 1.300357,41.794132,494.264 1.300347,41.794155,494.026 1.300338,41.794177,494.075 1.300325,41.794198,494.062 1.300312,41.79422,494.083 1.300298,41.794238,493.811 1.300287,41.79426,493.809 1.300278,41.79428,494.0579999999999 1.300272,41.794303,494.03 1.300263,41.794323,494.068 1.300257,41.794345,494.036 1.30025,41.794367,494.0939999999999 1.300245,41.79439,494.043 1.300237,41.79441,493.846 1.300232,41.794432,493.818 1.300225,41.794457,493.677 1.300217,41.794478,493.692 1.300213,41.794502,493.673 1.300205,41.794523,493.6199999999999 1.300195,41.794545,493.6089999999999 1.300185,41.794567,493.661 1.300178,41.794585,493.2529999999999 1.300168,41.794607,493.261 1.30016,41.794627,493.259 1.300148,41.79465,493.2169999999999 1.30014,41.794672,493.286 1.300135,41.794692,493.249 1.300127,41.794715,493.261 1.300117,41.794735,493.0400000000001 1.300113,41.794758,493.0529999999999 1.300113,41.794777,493.004 1.30011,41.794798,493.2139999999999 1.300105,41.794818,493.209 1.300097,41.794838,493.2269999999999 1.30009,41.794858,493.239 1.300085,41.794878,492.867 1.300077,41.794898,492.845 1.30007,41.794918,493.033 1.300067,41.79494,493.242 1.300057,41.794962,493.295 1.300055,41.794985,493.2169999999999 1.300052,41.795007,493.276 1.30005,41.795027,493.293 1.300048,41.795045,493.265 1.300043,41.795053,493.2209999999999 1.300043,41.795057,493.409 1.30003,41.79508,493.811 1.299988,41.795157,493.413 1.299975,41.79519,493.4309999999999 1.299967,41.795225,493.439 1.299962,41.795255,493.447 1.299957,41.795283,493.496 1.299955,41.795313,493.469 1.299952,41.795335,493.4409999999999 1.29995,41.795362,493.44 1.299945,41.795385,493.489 1.299948,41.795407,493.4059999999999 1.299948,41.795428,493.426 1.299953,41.795447,493.409 1.299957,41.795463,493.44 1.299958,41.795482,493.6420000000001 1.299962,41.795507,493.63 1.299953,41.795528,493.498 1.299947,41.795538,493.456 1.29991,41.795567,493.635 1.299877,41.795582,493.638 1.299847,41.795598,493.64 1.299815,41.795607,493.619 1.29978,41.795615,493.671 1.299738,41.79562,493.4409999999999 1.299693,41.79562,493.415 1.299648,41.795625,493.409 1.299608,41.795632,493.459 1.299558,41.795633,493.4710000000001 1.299507,41.795627,493.499 1.299477,41.795623,493.657 1.29944,41.795617,494.415 1.299408,41.795612,494.814 1.299373,41.795605,494.817 1.29934,41.79559,495.0389999999999 1.299298,41.795577,495.048 1.299252,41.795563,494.862 1.29921,41.795545,494.883 1.299167,41.795532,494.811 1.299123,41.795522,495.009 1.299088,41.795508,495.638 1.29905,41.795492,495.64 1.299,41.795472,494.8779999999999 1.298978,41.795465,494.886 1.298958,41.795458,494.674 1.298942,41.79545,494.223 1.298905,41.795433,494.826 1.29887,41.795417,495.088 1.298828,41.7954,495.067 1.298788,41.795388,494.894 1.298748,41.795378,494.457 1.29871,41.795365,494.422 1.298672,41.79535,494.409 1.298633,41.795337,494.6609999999999 1.298592,41.795323,494.243 1.298547,41.795303,494.681 1.298518,41.795285,494.659 1.298492,41.795272,494.287 1.298465,41.795257,494.096 1.29844,41.795238,493.619 1.298418,41.79522,493.631 1.298397,41.795203,493.63 1.298377,41.795187,493.8369999999999 1.29836,41.795167,493.849 1.298352,41.795152,493.813 1.298343,41.79514,493.809 1.298325,41.795117,493.6549999999999 1.298315,41.795093,493.467 1.298313,41.795085,493.485 1.298295,41.795042,493.813 1.298277,41.794997,493.051 1.29827,41.794977,492.87 1.29826,41.794955,492.683 1.298252,41.794937,492.2649999999999 1.298245,41.794918,492.0539999999999 1.298237,41.794897,491.891 1.298228,41.794873,491.681 1.298218,41.794848,491.419 1.298208,41.794822,491.009 1.2982,41.794798,490.651 1.298188,41.794772,490.673 1.298177,41.794745,490.421 1.298168,41.79472,490.4690000000001 1.298158,41.794695,490.297 1.29815,41.794668,490.266 1.298138,41.794643,490.059 1.298128,41.79462,490.011 1.298118,41.794597,490.02 1.298107,41.794572,489.892 1.298098,41.794548,489.673 1.298088,41.794522,489.6199999999999 1.29808,41.794498,489.6089999999999 1.298073,41.794472,489.631 1.298065,41.794445,489.6229999999999 1.298055,41.794422,489.4309999999999 1.298037,41.794375,489.679 1.29803,41.794352,489.627 1.298023,41.794325,489.286 1.298022,41.794303,489.2989999999999 1.298018,41.79428,489.051 1.298017,41.794257,489.0400000000001 1.298013,41.794233,489.067 1.298012,41.794207,488.881 1.298013,41.794182,488.8190000000001 1.298017,41.794155,488.609 1.29802,41.794128,488.688 1.298023,41.794103,488.6499999999999 1.298027,41.794078,488.278 1.29803,41.794053,488.236 1.298032,41.794028,488.274 1.298035,41.794003,488.243 1.298035,41.793978,488.076 1.298037,41.793953,488.018 1.298038,41.79393,487.897 1.298043,41.793903,487.819 1.298048,41.79388,487.809 1.29805,41.793852,487.819 1.298053,41.793825,487.809 1.298055,41.7938,487.853 1.298052,41.793775,487.855 1.298048,41.793753,487.8629999999999 1.298043,41.79373,487.871 1.298037,41.793708,487.839 1.298025,41.793662,488.0479999999999 1.298017,41.79364,487.841 1.29801,41.793617,487.843 1.297988,41.793575,487.6420000000001 1.29798,41.793553,487.897 1.29797,41.79353,487.6229999999999 1.29796,41.793508,487.625 1.29795,41.793487,487.6089999999999 1.297935,41.793465,487.651 1.297922,41.793447,487.663 1.297915,41.79343,487.631 1.29791,41.793418,487.639 1.297902,41.793393,487.857 1.297888,41.793362,487.826 1.297875,41.793333,487.6890000000001 1.29786,41.793302,487.631 1.297852,41.793267,487.67 1.297843,41.793235,487.437 1.297835,41.793205,487.6489999999999 1.29782,41.793177,487.813 1.297798,41.79313,487.409 1.297792,41.793115,487.4449999999999 1.297778,41.79308,487.677 1.297765,41.793045,487.625 1.297758,41.793027,487.423 1.297743,41.792993,487.421 1.297735,41.792978,487.8299999999999 1.297725,41.792943,488.013 1.297715,41.792913,487.895 1.297702,41.792872,487.814 1.297695,41.792848,487.458 1.297683,41.792823,487.252 1.297672,41.7928,487.2169999999999 1.297662,41.792775,487.209 1.29765,41.792752,487.297 1.29764,41.79273,487.2989999999999 1.297625,41.79271,487.247 1.29761,41.792688,487.265 1.297598,41.792665,487.2629999999999 1.297583,41.792642,487.212 1.297568,41.79262,487.095 1.297552,41.7926,487.097 1.297537,41.79258,487.276 1.29751,41.79254,487.4379999999999 1.297497,41.79252,487.47 1.297482,41.7925,487.017 1.297467,41.79248,487.009 1.297452,41.792457,487.065 1.297435,41.792437,487.017 1.297422,41.792413,487.065 1.297405,41.792392,486.883 1.297372,41.79235,486.831 1.297357,41.79233,486.85 1.29734,41.792308,486.853 1.297325,41.792287,486.8749999999999 1.297317,41.792272,486.874 1.297307,41.792257,486.899 1.297297,41.792242,486.807 1.297285,41.792227,486.827 1.297252,41.792188,486.609 1.297237,41.792178,486.641 1.29721,41.792152,486.893 1.297182,41.792133,486.881 1.297163,41.792113,487.459 1.297147,41.792088,487.2269999999999 1.29713,41.792063,487.226 1.297115,41.792037,487.419 1.297098,41.792008,487.271 1.297078,41.79198,486.82 1.297062,41.791948,486.6249999999999 1.297032,41.79192,486.826 1.297012,41.791892,486.6079999999999 1.296992,41.791862,487.209 1.296955,41.79181,486.634 1.29694,41.79179,486.656 1.296927,41.791768,486.6639999999999 1.296912,41.791743,486.452 1.296898,41.79172,486.63 1.296887,41.791697,486.669 1.296873,41.791675,486.672 1.296858,41.791653,486.474 1.296842,41.791632,486.453 1.296828,41.79161,486.466 1.296817,41.791587,486.4289999999999 1.296805,41.791565,486.421 1.296793,41.791543,486.409 1.296778,41.791522,486.478 1.296763,41.791503,486.67 1.296748,41.791483,486.628 1.296737,41.791463,486.276 1.296723,41.791445,486.274 1.29671,41.791422,486.243 1.296697,41.791402,486.4859999999999 1.296678,41.791378,486.458 1.296643,41.791338,486.6469999999999 1.296615,41.791302,486.434 1.296588,41.791263,486.2549999999999 1.296562,41.791222,486.41 1.296535,41.791177,486.409 1.296507,41.791135,486.685 1.296473,41.791095,486.627 1.296443,41.791057,486.635 1.29643,41.791037,486.883 1.296418,41.791018,486.821 1.296407,41.791005,486.82 1.296393,41.79099,486.893 1.296385,41.790977,486.8150000000001 1.296373,41.790962,487.824 1.29635,41.790935,488.0549999999999 1.296337,41.790907,488.007 1.29632,41.790875,487.017 1.2963,41.790847,486.809 1.296282,41.79082,487.087 1.296267,41.790793,487.0389999999999 1.296255,41.79076,487.037 1.29624,41.790725,487.055 1.296228,41.790697,487.2529999999999 1.296217,41.79065,487.282 1.296212,41.790632,487.215 1.296205,41.790598,487.497 1.296197,41.790568,487.6159999999999 1.29619,41.790537,487.855 1.296188,41.790508,487.6070000000001 1.296183,41.790475,487.617 1.296182,41.790438,487.6089999999999 1.296167,41.790393,487.8869999999999 1.296163,41.790378,487.889 1.296157,41.790347,487.847 1.296147,41.790312,487.6549999999999 1.296142,41.790278,487.6229999999999 1.296135,41.790242,487.672 1.296117,41.790212,487.875 1.2961,41.790183,487.8170000000001 1.296083,41.790148,487.826 1.296062,41.790117,487.864 1.296042,41.790085,487.806 1.296023,41.790057,487.8159999999999 1.296,41.790023,488.009 1.295977,41.789995,488.0579999999999 1.295953,41.78997,488.0799999999999 1.29593,41.789947,488.468 1.295897,41.78991,488.816 1.29588,41.789892,488.474 1.295862,41.789872,488.423 1.295845,41.789848,488.416 1.295832,41.789827,488.248 1.295813,41.789805,488.227 1.295795,41.789783,488.245 1.295778,41.789765,488.247 1.295758,41.789747,488.211 1.29574,41.789732,488.009 1.295718,41.789712,488.056 1.295702,41.789693,488.248 1.295685,41.789675,488.286 1.295665,41.789658,488.274 1.295648,41.789642,488.032 1.295632,41.789622,488.011 1.295615,41.789603,488.0539999999999 1.295597,41.789585,488.096 1.29558,41.789568,488.045 1.29556,41.78955,488.061 1.295542,41.789535,488.021 1.295518,41.78952,488.413 1.295493,41.789502,488.009 1.295468,41.789485,488.068 1.295442,41.78947,488.0899999999999 1.295417,41.789455,488.098 1.295388,41.78944,488.016 1.295368,41.78943,487.854 1.29535,41.789422,487.833 1.295332,41.789413,487.846 1.295315,41.789407,487.878 1.295287,41.789387,487.8170000000001 1.295258,41.789362,488.0339999999999 1.295223,41.789342,488.0549999999999 1.295188,41.789322,488.01 1.295152,41.789298,488.2090000000001 1.295113,41.789278,488.455 1.29508,41.789258,488.467 1.29505,41.789235,488.0549999999999 1.295022,41.78921,488.243 1.294992,41.789183,488.231 1.294967,41.789165,488.29 1.29494,41.789145,488.463 1.294905,41.789127,488.4649999999999 1.294853,41.78909,488.414 1.294832,41.789073,488.445 1.294787,41.78904,488.247 1.294763,41.789023,488.211 1.294738,41.789008,488.2090000000001 1.294713,41.788992,488.266 1.294687,41.788978,488.218 1.29464,41.788943,488.446 1.294595,41.78891,488.414 1.294572,41.788895,488.452 1.29455,41.788878,488.441 1.294507,41.788845,488.474 1.294485,41.788828,488.466 1.294465,41.788813,488.485 1.294418,41.788783,488.235 1.294375,41.78875,488.086 1.294333,41.788715,488.214 1.294293,41.788678,488.2090000000001 1.29425,41.788643,488.235 1.29423,41.788625,488.237 1.294212,41.788608,488.2649999999999 1.294192,41.788588,488.293 1.294173,41.788572,488.021 1.294133,41.78854,488.0899999999999 1.29409,41.788502,488.243 1.29407,41.788487,488.235 1.294048,41.78847,488.2939999999999 1.294007,41.788435,488.223 1.293968,41.788395,488.283 1.293952,41.788377,488.211 1.293933,41.788357,488.2090000000001 1.293908,41.788332,488.274 1.293898,41.78832,488.2259999999999 1.293873,41.788295,488.454 1.293843,41.788248,488.072 1.293833,41.788233,488.42 1.293817,41.788208,488.499 1.293783,41.788162,488.282 1.293773,41.788145,488.234 1.293753,41.788115,488.263 1.293717,41.78808,488.675 1.293697,41.788055,488.8279999999999 1.293683,41.788042,488.82 1.293655,41.788013,488.609 1.293607,41.78798,488.4889999999999 1.293592,41.787968,488.411 1.293537,41.787927,488.689 1.293518,41.787915,488.6469999999999 1.293502,41.787903,488.435 1.293475,41.787878,488.284 1.293443,41.787852,488.277 1.29341,41.787822,488.049 1.293383,41.787795,488.098 1.293363,41.787768,488.454 1.293352,41.787737,489.0559999999999 1.293352,41.787698,489.011 1.29336,41.78766,489.209 1.293363,41.78764,489.2169999999999 1.293367,41.787618,489.429 1.293378,41.787573,489.427 1.29338,41.787555,489.4449999999999 1.293382,41.787533,489.8229999999999 1.293387,41.787515,489.862 1.293398,41.787498,489.815 1.29341,41.787478,489.877 1.293423,41.78746,489.856 1.293442,41.787417,489.8159999999999 1.293465,41.78738,489.8759999999999 1.293483,41.787368,489.813 1.293508,41.787358,489.809 1.293572,41.787375,489.643 1.293602,41.787377,489.6549999999999 1.293628,41.787375,489.413 1.293688,41.787377,489.6909999999999 1.293747,41.78738,489.679 1.293777,41.787383,489.4379999999999 1.293807,41.787388,489.4909999999999 1.293872,41.787403,489.473 1.293937,41.78741,489.692 1.293972,41.787413,489.611 1.294005,41.787418,489.421 1.294038,41.787422,489.403 1.29407,41.787425,489.409 1.294102,41.787427,489.423 1.29413,41.78743,489.465 1.294187,41.787433,489.663 1.294208,41.787435,489.881 1.294228,41.787432,489.849 1.294267,41.787442,490.2679999999999 1.294307,41.787452,490.671 1.294353,41.787455,490.673 1.294402,41.787453,490.852 1.294445,41.787453,491.022 1.29449,41.787452,491.062 1.294537,41.787447,491.208 1.29458,41.787445,490.809 1.294625,41.787443,490.814 1.29467,41.787442,491.086 1.294722,41.78744,491.2239999999999 1.294767,41.787433,491.212 1.29481,41.78742,491.09 1.294828,41.78741,491.019 1.29487,41.787387,491.272 1.294892,41.787375,491.244 1.294907,41.787357,491.0830000000001 1.294935,41.787323,491.254 1.294948,41.787305,491.6559999999999 1.294963,41.787287,491.611 1.294977,41.787268,491.809 1.294995,41.787237,491.817 1.295007,41.787218,491.829 1.295017,41.787198,492.017 1.295035,41.787163,491.835 1.295057,41.787128,491.813 1.295065,41.787113,492.022 1.295097,41.787092,492.025 1.29512,41.787065,492.877 1.295142,41.787033,492.6859999999999 1.295138,41.787005,492.649 1.295147,41.786982,492.602 1.295182,41.786973,492.622 1.295208,41.786965,492.609 1.295225,41.78695,493.0360000000001 1.295235,41.786933,493.268 1.295238,41.786917,493.276 1.295247,41.786912,492.884 1.295242,41.786915,492.842 1.295317,41.786922,492.6609999999999 1.2954,41.786935,493.074 1.295447,41.78694,493.026 1.295487,41.786943,492.855 1.295528,41.786948,492.841 1.295563,41.786952,493.2809999999999 1.295598,41.786953,493.209 1.295633,41.786955,493.409 1.295665,41.78696,493.446 1.2957,41.78696,493.648 1.295732,41.786962,493.6659999999999 1.295765,41.786962,493.634 1.295798,41.786958,494.032 1.295833,41.786958,494.211 1.295867,41.786955,494.274 1.295898,41.786952,494.496 1.295933,41.786952,494.665 1.295968,41.786955,494.639 1.296008,41.786957,494.801 1.296047,41.786962,494.821 1.296087,41.786965,494.809 1.296125,41.786968,495.035 1.296162,41.786973,495.047 1.296202,41.78698,495.035 1.296238,41.786983,495.0529999999999 1.296278,41.786988,495.061 1.296315,41.78699,495.08 1.296357,41.786992,495.023 1.296397,41.786995,495.0849999999999 1.296433,41.786995,495.284 1.29647,41.786998,495.2529999999999 1.296508,41.787002,495.404 1.296547,41.787002,495.414 1.296582,41.787,495.6089999999999 1.296618,41.786998,495.8369999999999 1.296653,41.786997,495.829 1.296688,41.787,495.8269999999999 1.296727,41.787005,495.865 1.296763,41.787012,496.223 1.2968,41.787017,496.282 1.296835,41.787023,496.0149999999999 1.296868,41.787027,496.027 1.296902,41.78703,495.856 1.296935,41.78703,496.276 1.296968,41.787035,496.29 1.296998,41.787037,496.2189999999999 1.297035,41.787035,496.2090000000001 1.297067,41.787035,496.299 1.2971,41.787038,496.421 1.297133,41.787042,496.4889999999999 1.297168,41.787043,496.677 1.297202,41.787043,496.615 1.297235,41.787043,496.6139999999999 1.297268,41.787047,496.677 1.297297,41.787048,496.4789999999999 1.297318,41.787053,496.488 1.297338,41.78705,496.843 1.29736,41.787048,496.8639999999999 1.297403,41.787045,496.61 1.297442,41.787043,496.609 1.297483,41.787042,496.646 1.297528,41.787042,496.8679999999999 1.297573,41.787035,497.026 1.297618,41.78703,497.024 1.297657,41.787025,497.262 1.297702,41.787027,497.271 1.297742,41.787027,497.424 1.297788,41.787028,497.6559999999999 1.29783,41.787025,497.4349999999999 1.297868,41.787025,497.621 1.297908,41.78703,497.4409999999999 1.29795,41.787025,497.605 1.297995,41.787027,498.009 1.298037,41.787023,498.064 1.298075,41.787012,498.056 1.29811,41.786998,498.6539999999999 1.298142,41.78698,498.8220000000001 1.298158,41.786953,499.0599999999999 1.298162,41.78692,499.449 1.298143,41.786888,499.6519999999999 1.298127,41.786855,499.694 1.2981,41.78682,499.633 1.298092,41.7868,499.6619999999999 1.298085,41.786777,499.683 1.298075,41.786752,499.611 1.298065,41.786728,499.6089999999999 1.29805,41.786705,499.878 1.298037,41.786682,500.01 1.298025,41.78666,500.018 1.298013,41.78664,499.826 1.298003,41.786617,499.864 1.297992,41.786595,499.893 1.297983,41.786575,499.8159999999999 1.297975,41.78655,499.868 1.297968,41.786528,499.857 1.297957,41.786508,500.021 1.297952,41.786487,500.0409999999999 1.297943,41.786467,499.605 1.297935,41.786447,499.6089999999999 1.297927,41.786427,499.694 1.297917,41.786405,499.6960000000001 1.297907,41.786388,499.614 1.297893,41.786367,499.842 1.297867,41.786325,499.8699999999999 1.297855,41.786303,499.879 1.297825,41.786263,499.872 1.29781,41.786243,499.854 1.297797,41.786223,499.843 1.297782,41.786208,499.842 1.297768,41.786187,500.022 1.297753,41.786168,500.214 1.297745,41.786147,500.409 1.297732,41.786122,500.446 1.297718,41.7861,500.218 1.297703,41.786077,500.256 1.29769,41.786057,500.264 1.297677,41.786035,500.2719999999999 1.297667,41.786015,500.451 1.297658,41.785992,500.4340000000001 1.29765,41.785967,500.686 1.297643,41.785945,500.645 1.29763,41.785905,500.478 1.297618,41.785885,500.4329999999999 1.297608,41.785865,500.426 1.297597,41.785845,500.409 1.297587,41.785823,500.4889999999999 1.297577,41.785803,500.681 1.29757,41.785783,500.629 1.29756,41.785763,500.6469999999999 1.29755,41.785745,500.485 1.297542,41.78573,500.414 1.29753,41.785715,500.677 1.297522,41.785698,500.689 1.297493,41.78567,500.6679999999999 1.297472,41.78564,500.849 1.297445,41.785613,500.602 1.297423,41.785585,500.8220000000001 1.297398,41.78556,501.009 1.297375,41.785533,501.076 1.297347,41.785502,501.098 1.297322,41.785473,501.066 1.297308,41.785455,501.014 1.297295,41.785438,501.262 1.297283,41.785418,501.2309999999999 1.297273,41.785397,501.2739999999999 1.297262,41.785377,501.416 1.297252,41.785355,501.425 1.297243,41.785332,501.485 1.297235,41.785313,501.489 1.297223,41.785292,501.417 1.297213,41.785272,501.4089999999999 1.297203,41.78525,501.46 1.297192,41.78523,501.4519999999999 1.29718,41.785208,501.67 1.29717,41.785187,501.648 1.297158,41.785167,501.6159999999999 1.297147,41.785147,501.6549999999999 1.297133,41.785127,501.868 1.297122,41.785108,502.0799999999999 1.297108,41.78509,502.069 1.297095,41.78507,502.075 1.297082,41.785045,501.828 1.297073,41.785028,501.8200000000001 1.297065,41.785012,501.809 1.297055,41.784995,502.049 1.297045,41.784982,502.011 1.297032,41.78495,502.059 1.297017,41.784928,502.267 1.297,41.784897,502.425 1.29698,41.784868,502.474 1.296963,41.784837,502.487 1.296947,41.78481,502.419 1.296922,41.784783,502.438 1.296887,41.784772,502.455 1.296847,41.784778,502.4069999999999 1.296802,41.78479,502.417 1.296763,41.784807,502.809 1.296728,41.784823,502.287 1.296693,41.78484,502.289 1.296657,41.784847,501.097 1.296618,41.784855,501.045 1.296587,41.784868,501.0529999999999 1.296555,41.784883,501.212 1.296537,41.78488,501.275 1.29651,41.784865,501.247 
				</coordinates>
			</LineString>
		</MultiGeometry>
		<atom:link rel="app" href="https://www.google.com/earth/about/versions/#earth-pro" title="Google Earth Pro 7.3.7.1155"></atom:link>
	</Placemark>
</Document>
</kml>
